<?xml version="1.0" encoding="UTF-8"?>
<kml xmlns="http://www.opengis.net/kml/2.2" xmlns:gx="http://www.google.com/kml/ext/2.2" xmlns:kml="http://www.opengis.net/kml/2.2" xmlns:atom="http://www.w3.org/2005/Atom">
<Document>
	<name>kmz SJR2.kmz</name>
	<Style id="failed">
		<LineStyle>
			<color>ffff0000</color>
			<width>3.2</width>
		</LineStyle>
	</Style>
	<Style id="failed0">
		<LineStyle>
			<color>ff00ffff</color>
			<width>3.2</width>
		</LineStyle>
	</Style>
	<Style id="failed1">
		<LineStyle>
			<color>ffff0000</color>
			<width>3.2</width>
		</LineStyle>
	</Style>
	<Style id="failed2">
		<LineStyle>
			<color>ff00ffff</color>
			<width>3.2</width>
		</LineStyle>
	</Style>
	<Style id="inline">
		<LineStyle>
			<color>ffff0000</color>
			<width>3</width>
		</LineStyle>
		<PolyStyle>
			<fill>0</fill>
		</PolyStyle>
	</Style>
	<Style id="inline0">
		<LineStyle>
			<color>ff00ff00</color>
			<width>3</width>
		</LineStyle>
		<PolyStyle>
			<fill>0</fill>
		</PolyStyle>
	</Style>
	<Style id="inline1">
		<LineStyle>
			<color>ffff0000</color>
			<width>3</width>
		</LineStyle>
		<PolyStyle>
			<fill>0</fill>
		</PolyStyle>
	</Style>
	<Style id="inline10">
		<LineStyle>
			<color>ffff0000</color>
			<width>3.5</width>
		</LineStyle>
		<PolyStyle>
			<fill>0</fill>
		</PolyStyle>
	</Style>
	<StyleMap id="inline11">
		<Pair>
			<key>normal</key>
			<styleUrl>#inline2</styleUrl>
		</Pair>
		<Pair>
			<key>highlight</key>
			<styleUrl>#inline12</styleUrl>
		</Pair>
	</StyleMap>
	<Style id="inline12">
		<LineStyle>
			<color>ff00ffff</color>
			<width>3.5</width>
		</LineStyle>
		<PolyStyle>
			<fill>0</fill>
		</PolyStyle>
	</Style>
	<StyleMap id="inline13">
		<Pair>
			<key>normal</key>
			<styleUrl>#inline6</styleUrl>
		</Pair>
		<Pair>
			<key>highlight</key>
			<styleUrl>#inline0</styleUrl>
		</Pair>
	</StyleMap>
	<StyleMap id="inline14">
		<Pair>
			<key>normal</key>
			<styleUrl>#inline15</styleUrl>
		</Pair>
		<Pair>
			<key>highlight</key>
			<styleUrl>#inline10</styleUrl>
		</Pair>
	</StyleMap>
	<Style id="inline15">
		<LineStyle>
			<color>ffff0000</color>
			<width>3.5</width>
		</LineStyle>
		<PolyStyle>
			<fill>0</fill>
		</PolyStyle>
	</Style>
	<StyleMap id="inline16">
		<Pair>
			<key>normal</key>
			<styleUrl>#inline1</styleUrl>
		</Pair>
		<Pair>
			<key>highlight</key>
			<styleUrl>#inline</styleUrl>
		</Pair>
	</StyleMap>
	<Style id="inline2">
		<LineStyle>
			<color>ff00ffff</color>
			<width>3.5</width>
		</LineStyle>
		<PolyStyle>
			<fill>0</fill>
		</PolyStyle>
	</Style>
	<Style id="inline3">
		<LineStyle>
			<color>ff00ffff</color>
			<width>3.5</width>
		</LineStyle>
		<PolyStyle>
			<fill>0</fill>
		</PolyStyle>
	</Style>
	<Style id="inline4">
		<LineStyle>
			<color>ff0000ff</color>
			<width>2</width>
		</LineStyle>
		<PolyStyle>
			<fill>0</fill>
		</PolyStyle>
	</Style>
	<StyleMap id="inline5">
		<Pair>
			<key>normal</key>
			<styleUrl>#inline4</styleUrl>
		</Pair>
		<Pair>
			<key>highlight</key>
			<styleUrl>#inline9</styleUrl>
		</Pair>
	</StyleMap>
	<Style id="inline6">
		<LineStyle>
			<color>ff00ff00</color>
			<width>3</width>
		</LineStyle>
		<PolyStyle>
			<fill>0</fill>
		</PolyStyle>
	</Style>
	<Style id="inline7">
		<LineStyle>
			<color>ff00ffff</color>
			<width>3.5</width>
		</LineStyle>
		<PolyStyle>
			<fill>0</fill>
		</PolyStyle>
	</Style>
	<StyleMap id="inline8">
		<Pair>
			<key>normal</key>
			<styleUrl>#inline3</styleUrl>
		</Pair>
		<Pair>
			<key>highlight</key>
			<styleUrl>#inline7</styleUrl>
		</Pair>
	</StyleMap>
	<Style id="inline9">
		<LineStyle>
			<color>ff0000ff</color>
			<width>2</width>
		</LineStyle>
		<PolyStyle>
			<fill>0</fill>
		</PolyStyle>
	</Style>
	<StyleMap id="m_ylw-pushpin">
		<Pair>
			<key>normal</key>
			<styleUrl>#s_ylw-pushpin0</styleUrl>
		</Pair>
		<Pair>
			<key>highlight</key>
			<styleUrl>#s_ylw-pushpin_hl0</styleUrl>
		</Pair>
	</StyleMap>
	<StyleMap id="m_ylw-pushpin0">
		<Pair>
			<key>normal</key>
			<styleUrl>#s_ylw-pushpin</styleUrl>
		</Pair>
		<Pair>
			<key>highlight</key>
			<styleUrl>#s_ylw-pushpin_hl00</styleUrl>
		</Pair>
	</StyleMap>
	<StyleMap id="m_ylw-pushpin00">
		<Pair>
			<key>normal</key>
			<styleUrl>#s_ylw-pushpin00</styleUrl>
		</Pair>
		<Pair>
			<key>highlight</key>
			<styleUrl>#s_ylw-pushpin_hl</styleUrl>
		</Pair>
	</StyleMap>
	<StyleMap id="msn_13332">
		<Pair>
			<key>normal</key>
			<styleUrl>#sn_133321</styleUrl>
		</Pair>
		<Pair>
			<key>highlight</key>
			<styleUrl>#sh_133320</styleUrl>
		</Pair>
	</StyleMap>
	<StyleMap id="msn_133320">
		<Pair>
			<key>normal</key>
			<styleUrl>#sn_13332</styleUrl>
		</Pair>
		<Pair>
			<key>highlight</key>
			<styleUrl>#sh_13332</styleUrl>
		</Pair>
	</StyleMap>
	<StyleMap id="msn_133321">
		<Pair>
			<key>normal</key>
			<styleUrl>#sn_133320</styleUrl>
		</Pair>
		<Pair>
			<key>highlight</key>
			<styleUrl>#sh_133321</styleUrl>
		</Pair>
	</StyleMap>
	<StyleMap id="msn_ima12">
		<Pair>
			<key>normal</key>
			<styleUrl>#sn_ima121</styleUrl>
		</Pair>
		<Pair>
			<key>highlight</key>
			<styleUrl>#sh_ima1200</styleUrl>
		</Pair>
	</StyleMap>
	<StyleMap id="msn_ima120">
		<Pair>
			<key>normal</key>
			<styleUrl>#sn_ima12</styleUrl>
		</Pair>
		<Pair>
			<key>highlight</key>
			<styleUrl>#sh_ima120</styleUrl>
		</Pair>
	</StyleMap>
	<StyleMap id="msn_ima1200">
		<Pair>
			<key>normal</key>
			<styleUrl>#sn_ima120</styleUrl>
		</Pair>
		<Pair>
			<key>highlight</key>
			<styleUrl>#sh_ima12</styleUrl>
		</Pair>
	</StyleMap>
	<StyleMap id="msn_ylw-pushpin">
		<Pair>
			<key>normal</key>
			<styleUrl>#sn_ylw-pushpin0</styleUrl>
		</Pair>
		<Pair>
			<key>highlight</key>
			<styleUrl>#sh_ylw-pushpin1</styleUrl>
		</Pair>
	</StyleMap>
	<StyleMap id="msn_ylw-pushpin0">
		<Pair>
			<key>normal</key>
			<styleUrl>#failed2</styleUrl>
		</Pair>
		<Pair>
			<key>highlight</key>
			<styleUrl>#failed0</styleUrl>
		</Pair>
	</StyleMap>
	<StyleMap id="msn_ylw-pushpin1">
		<Pair>
			<key>normal</key>
			<styleUrl>#sn_ylw-pushpin1</styleUrl>
		</Pair>
		<Pair>
			<key>highlight</key>
			<styleUrl>#sh_ylw-pushpin3</styleUrl>
		</Pair>
	</StyleMap>
	<StyleMap id="msn_ylw-pushpin2">
		<Pair>
			<key>normal</key>
			<styleUrl>#sn_ylw-pushpin2</styleUrl>
		</Pair>
		<Pair>
			<key>highlight</key>
			<styleUrl>#sh_ylw-pushpin</styleUrl>
		</Pair>
	</StyleMap>
	<StyleMap id="msn_ylw-pushpin3">
		<Pair>
			<key>normal</key>
			<styleUrl>#sn_ylw-pushpin</styleUrl>
		</Pair>
		<Pair>
			<key>highlight</key>
			<styleUrl>#sh_ylw-pushpin0</styleUrl>
		</Pair>
	</StyleMap>
	<StyleMap id="msn_ylw-pushpin4">
		<Pair>
			<key>normal</key>
			<styleUrl>#sn_ylw-pushpin3</styleUrl>
		</Pair>
		<Pair>
			<key>highlight</key>
			<styleUrl>#sh_ylw-pushpin2</styleUrl>
		</Pair>
	</StyleMap>
	<StyleMap id="msn_ylw-pushpin5">
		<Pair>
			<key>normal</key>
			<styleUrl>#failed1</styleUrl>
		</Pair>
		<Pair>
			<key>highlight</key>
			<styleUrl>#failed</styleUrl>
		</Pair>
	</StyleMap>
	<Style id="s_ylw-pushpin">
		<IconStyle>
			<scale>1.1</scale>
			<Icon>
				<href>files/ima12.jpg</href>
			</Icon>
			<hotSpot x="0.5" y="0.5" xunits="fraction" yunits="fraction"/>
		</IconStyle>
	</Style>
	<Style id="s_ylw-pushpin0">
		<IconStyle>
			<scale>1.1</scale>
			<Icon>
				<href>http://maps.google.com/mapfiles/kml/pushpin/ylw-pushpin.png</href>
			</Icon>
			<hotSpot x="20" y="2" xunits="pixels" yunits="pixels"/>
		</IconStyle>
		<LineStyle>
			<color>ff0000ff</color>
			<width>3.1</width>
		</LineStyle>
	</Style>
	<Style id="s_ylw-pushpin00">
		<IconStyle>
			<scale>1.1</scale>
			<Icon>
				<href>http://maps.google.com/mapfiles/kml/pushpin/ylw-pushpin.png</href>
			</Icon>
			<hotSpot x="20" y="2" xunits="pixels" yunits="pixels"/>
		</IconStyle>
		<LineStyle>
			<color>ff0000ff</color>
			<width>3</width>
		</LineStyle>
	</Style>
	<Style id="s_ylw-pushpin_hl">
		<IconStyle>
			<scale>1.3</scale>
			<Icon>
				<href>http://maps.google.com/mapfiles/kml/pushpin/ylw-pushpin.png</href>
			</Icon>
			<hotSpot x="20" y="2" xunits="pixels" yunits="pixels"/>
		</IconStyle>
		<LineStyle>
			<color>ff0000ff</color>
			<width>3</width>
		</LineStyle>
	</Style>
	<Style id="s_ylw-pushpin_hl0">
		<IconStyle>
			<scale>1.3</scale>
			<Icon>
				<href>http://maps.google.com/mapfiles/kml/pushpin/ylw-pushpin.png</href>
			</Icon>
			<hotSpot x="20" y="2" xunits="pixels" yunits="pixels"/>
		</IconStyle>
		<LineStyle>
			<color>ff0000ff</color>
			<width>3.1</width>
		</LineStyle>
	</Style>
	<Style id="s_ylw-pushpin_hl00">
		<IconStyle>
			<scale>1.3</scale>
			<Icon>
				<href>files/ima12.jpg</href>
			</Icon>
			<hotSpot x="0.5" y="0.5" xunits="fraction" yunits="fraction"/>
		</IconStyle>
	</Style>
	<Style id="sh_13332">
		<IconStyle>
			<scale>1.18182</scale>
			<Icon>
				<href>files/13332.jpg</href>
			</Icon>
		</IconStyle>
	</Style>
	<Style id="sh_133320">
		<IconStyle>
			<scale>1.3</scale>
			<Icon>
				<href>files/13332.jpg</href>
			</Icon>
		</IconStyle>
	</Style>
	<Style id="sh_133321">
		<IconStyle>
			<scale>1.18182</scale>
			<Icon>
				<href>files/13332.jpg</href>
			</Icon>
		</IconStyle>
	</Style>
	<Style id="sh_ima12">
		<IconStyle>
			<scale>1.18182</scale>
			<Icon>
				<href>files/ima12.jpg</href>
			</Icon>
		</IconStyle>
	</Style>
	<Style id="sh_ima120">
		<IconStyle>
			<scale>1.18182</scale>
			<Icon>
				<href>files/ima12.jpg</href>
			</Icon>
		</IconStyle>
	</Style>
	<Style id="sh_ima1200">
		<IconStyle>
			<scale>1.18182</scale>
			<Icon>
				<href>files/ima12.jpg</href>
			</Icon>
		</IconStyle>
	</Style>
	<Style id="sh_ylw-pushpin">
		<IconStyle>
			<scale>1.3</scale>
			<Icon>
				<href>http://maps.google.com/mapfiles/kml/pushpin/ylw-pushpin.png</href>
			</Icon>
			<hotSpot x="20" y="2" xunits="pixels" yunits="pixels"/>
		</IconStyle>
		<LineStyle>
			<color>ff0000ff</color>
			<width>3.1</width>
		</LineStyle>
	</Style>
	<Style id="sh_ylw-pushpin0">
		<IconStyle>
			<scale>1.3</scale>
			<Icon>
				<href>http://maps.google.com/mapfiles/kml/pushpin/ylw-pushpin.png</href>
			</Icon>
			<hotSpot x="20" y="2" xunits="pixels" yunits="pixels"/>
		</IconStyle>
		<LineStyle>
			<color>ff00ffff</color>
			<width>3.1</width>
		</LineStyle>
	</Style>
	<Style id="sh_ylw-pushpin1">
		<IconStyle>
			<scale>1.3</scale>
			<Icon>
				<href>http://maps.google.com/mapfiles/kml/pushpin/ylw-pushpin.png</href>
			</Icon>
			<hotSpot x="20" y="2" xunits="pixels" yunits="pixels"/>
		</IconStyle>
		<LineStyle>
			<color>ff0000ff</color>
			<width>3.1</width>
		</LineStyle>
	</Style>
	<Style id="sh_ylw-pushpin2">
		<IconStyle>
			<scale>1.3</scale>
			<Icon>
				<href>http://maps.google.com/mapfiles/kml/pushpin/ylw-pushpin.png</href>
			</Icon>
			<hotSpot x="20" y="2" xunits="pixels" yunits="pixels"/>
		</IconStyle>
		<LineStyle>
			<color>ff0000ff</color>
			<width>3.1</width>
		</LineStyle>
	</Style>
	<Style id="sh_ylw-pushpin3">
		<IconStyle>
			<scale>1.3</scale>
			<Icon>
				<href>http://maps.google.com/mapfiles/kml/pushpin/ylw-pushpin.png</href>
			</Icon>
			<hotSpot x="20" y="2" xunits="pixels" yunits="pixels"/>
		</IconStyle>
		<LineStyle>
			<color>ff00ffff</color>
			<width>3.1</width>
		</LineStyle>
	</Style>
	<Style id="sn_13332">
		<IconStyle>
			<Icon>
				<href>files/13332.jpg</href>
			</Icon>
		</IconStyle>
	</Style>
	<Style id="sn_133320">
		<IconStyle>
			<Icon>
				<href>files/13332.jpg</href>
			</Icon>
		</IconStyle>
	</Style>
	<Style id="sn_133321">
		<IconStyle>
			<scale>1.1</scale>
			<Icon>
				<href>files/13332.jpg</href>
			</Icon>
		</IconStyle>
	</Style>
	<Style id="sn_ima12">
		<IconStyle>
			<Icon>
				<href>files/ima12.jpg</href>
			</Icon>
		</IconStyle>
	</Style>
	<Style id="sn_ima121">
		<IconStyle>
			<Icon>
				<href>files/ima12.jpg</href>
			</Icon>
		</IconStyle>
	</Style>
	<Style id="sn_ima120">
		<IconStyle>
			<Icon>
				<href>files/ima12.jpg</href>
			</Icon>
		</IconStyle>
	</Style>
	<Style id="sn_ylw-pushpin">
		<IconStyle>
			<scale>1.1</scale>
			<Icon>
				<href>http://maps.google.com/mapfiles/kml/pushpin/ylw-pushpin.png</href>
			</Icon>
			<hotSpot x="20" y="2" xunits="pixels" yunits="pixels"/>
		</IconStyle>
		<LineStyle>
			<color>ff00ffff</color>
			<width>3.1</width>
		</LineStyle>
	</Style>
	<Style id="sn_ylw-pushpin0">
		<IconStyle>
			<scale>1.1</scale>
			<Icon>
				<href>http://maps.google.com/mapfiles/kml/pushpin/ylw-pushpin.png</href>
			</Icon>
			<hotSpot x="20" y="2" xunits="pixels" yunits="pixels"/>
		</IconStyle>
		<LineStyle>
			<color>ff0000ff</color>
			<width>3.1</width>
		</LineStyle>
	</Style>
	<Style id="sn_ylw-pushpin1">
		<IconStyle>
			<scale>1.1</scale>
			<Icon>
				<href>http://maps.google.com/mapfiles/kml/pushpin/ylw-pushpin.png</href>
			</Icon>
			<hotSpot x="20" y="2" xunits="pixels" yunits="pixels"/>
		</IconStyle>
		<LineStyle>
			<color>ff00ffff</color>
			<width>3.1</width>
		</LineStyle>
	</Style>
	<Style id="sn_ylw-pushpin2">
		<IconStyle>
			<scale>1.1</scale>
			<Icon>
				<href>http://maps.google.com/mapfiles/kml/pushpin/ylw-pushpin.png</href>
			</Icon>
			<hotSpot x="20" y="2" xunits="pixels" yunits="pixels"/>
		</IconStyle>
		<LineStyle>
			<color>ff0000ff</color>
			<width>3.1</width>
		</LineStyle>
	</Style>
	<Style id="sn_ylw-pushpin3">
		<IconStyle>
			<scale>1.1</scale>
			<Icon>
				<href>http://maps.google.com/mapfiles/kml/pushpin/ylw-pushpin.png</href>
			</Icon>
			<hotSpot x="20" y="2" xunits="pixels" yunits="pixels"/>
		</IconStyle>
		<LineStyle>
			<color>ff0000ff</color>
			<width>3.1</width>
		</LineStyle>
	</Style>
	<Folder>
		<name>kmz SJR2</name>
		<open>1</open>
		<Placemark>
			<name>NAP</name>
			<LookAt>
				<longitude>-100.1160135804112</longitude>
				<latitude>19.69839327037639</latitude>
				<altitude>0</altitude>
				<heading>-19.08096626182725</heading>
				<tilt>55.32777667935139</tilt>
				<range>128.2138253464054</range>
				<gx:altitudeMode>relativeToSeaFloor</gx:altitudeMode>
			</LookAt>
			<styleUrl>#m_ylw-pushpin0</styleUrl>
			<Point>
				<gx:drawOrder>1</gx:drawOrder>
				<coordinates>-100.1159390724763,19.69812321305894,0</coordinates>
			</Point>
		</Placemark>
		<Placemark>
			<name>NAP</name>
			<LookAt>
				<longitude>-100.1168997194095</longitude>
				<latitude>19.69836052205658</latitude>
				<altitude>0</altitude>
				<heading>-19.08126495172798</heading>
				<tilt>55.32785482857187</tilt>
				<range>138.7964954082427</range>
				<gx:altitudeMode>relativeToSeaFloor</gx:altitudeMode>
			</LookAt>
			<styleUrl>#m_ylw-pushpin0</styleUrl>
			<Point>
				<gx:drawOrder>1</gx:drawOrder>
				<coordinates>-100.1171563548064,19.69812673661189,0</coordinates>
			</Point>
		</Placemark>
		<Placemark>
			<name>NAP</name>
			<LookAt>
				<longitude>-100.1171214558342</longitude>
				<latitude>19.70097006377199</latitude>
				<altitude>0</altitude>
				<heading>-4.931135366426304e-05</heading>
				<tilt>44.4680812019312</tilt>
				<range>108.1996633409294</range>
				<gx:altitudeMode>relativeToSeaFloor</gx:altitudeMode>
			</LookAt>
			<styleUrl>#m_ylw-pushpin0</styleUrl>
			<Point>
				<gx:drawOrder>1</gx:drawOrder>
				<coordinates>-100.1171010702103,19.70086393818054,0</coordinates>
			</Point>
		</Placemark>
		<Placemark>
			<name>NAP</name>
			<LookAt>
				<longitude>-100.1141318906044</longitude>
				<latitude>19.70225428196311</latitude>
				<altitude>0</altitude>
				<heading>0.0009777733849187769</heading>
				<tilt>43.41407891424937</tilt>
				<range>129.4927970550631</range>
				<gx:altitudeMode>relativeToSeaFloor</gx:altitudeMode>
			</LookAt>
			<styleUrl>#m_ylw-pushpin0</styleUrl>
			<Point>
				<gx:drawOrder>1</gx:drawOrder>
				<coordinates>-100.1142261628823,19.70218887882606,0</coordinates>
			</Point>
		</Placemark>
		<Placemark>
			<name>NAP</name>
			<LookAt>
				<longitude>-100.1155106897071</longitude>
				<latitude>19.70160442268983</latitude>
				<altitude>0</altitude>
				<heading>0.0005129465267889449</heading>
				<tilt>43.41392968835058</tilt>
				<range>105.3114280413166</range>
				<gx:altitudeMode>relativeToSeaFloor</gx:altitudeMode>
			</LookAt>
			<styleUrl>#m_ylw-pushpin0</styleUrl>
			<Point>
				<gx:drawOrder>1</gx:drawOrder>
				<coordinates>-100.1156247558254,19.70155257680219,0</coordinates>
			</Point>
		</Placemark>
		<Placemark>
			<name>NAP</name>
			<LookAt>
				<longitude>-100.1148487091833</longitude>
				<latitude>19.70191330003954</latitude>
				<altitude>0</altitude>
				<heading>0.0007361155021103375</heading>
				<tilt>43.41399200338734</tilt>
				<range>115.4093053421601</range>
				<gx:altitudeMode>relativeToSeaFloor</gx:altitudeMode>
			</LookAt>
			<styleUrl>#m_ylw-pushpin0</styleUrl>
			<Point>
				<gx:drawOrder>1</gx:drawOrder>
				<coordinates>-100.1150477139243,19.70183374145083,0</coordinates>
			</Point>
		</Placemark>
		<Placemark>
			<name>NAP</name>
			<LookAt>
				<longitude>-100.1116071745093</longitude>
				<latitude>19.70453285381012</latitude>
				<altitude>0</altitude>
				<heading>0.001223733634096785</heading>
				<tilt>35.25283594316036</tilt>
				<range>192.1944858277057</range>
				<gx:altitudeMode>relativeToSeaFloor</gx:altitudeMode>
			</LookAt>
			<styleUrl>#m_ylw-pushpin0</styleUrl>
			<Point>
				<gx:drawOrder>1</gx:drawOrder>
				<coordinates>-100.1116251363456,19.70434508510973,0</coordinates>
			</Point>
		</Placemark>
		<Placemark>
			<name>NAP</name>
			<LookAt>
				<longitude>-100.1102423441536</longitude>
				<latitude>19.7053778635164</latitude>
				<altitude>0</altitude>
				<heading>0.001683916751920792</heading>
				<tilt>35.25290309707724</tilt>
				<range>205.1517381205519</range>
				<gx:altitudeMode>relativeToSeaFloor</gx:altitudeMode>
			</LookAt>
			<styleUrl>#m_ylw-pushpin0</styleUrl>
			<Point>
				<gx:drawOrder>1</gx:drawOrder>
				<coordinates>-100.1098194504984,19.70519383777912,0</coordinates>
			</Point>
		</Placemark>
		<Placemark>
			<name>NAP</name>
			<LookAt>
				<longitude>-100.1085123161398</longitude>
				<latitude>19.70604798280087</latitude>
				<altitude>0</altitude>
				<heading>0.00226724926817031</heading>
				<tilt>35.25289294478546</tilt>
				<range>203.1928689146908</range>
				<gx:altitudeMode>relativeToSeaFloor</gx:altitudeMode>
			</LookAt>
			<styleUrl>#m_ylw-pushpin0</styleUrl>
			<Point>
				<gx:drawOrder>1</gx:drawOrder>
				<coordinates>-100.108477272282,19.70581860242822,0</coordinates>
			</Point>
		</Placemark>
		<Placemark>
			<name>NAP</name>
			<LookAt>
				<longitude>-100.101328735861</longitude>
				<latitude>19.70396816334454</latitude>
				<altitude>0</altitude>
				<heading>0.004597208609376905</heading>
				<tilt>33.33774604984351</tilt>
				<range>119.1130615836073</range>
				<gx:altitudeMode>relativeToSeaFloor</gx:altitudeMode>
			</LookAt>
			<styleUrl>#m_ylw-pushpin0</styleUrl>
			<Point>
				<gx:drawOrder>1</gx:drawOrder>
				<coordinates>-100.1017088428748,19.70410754991645,0</coordinates>
			</Point>
		</Placemark>
		<Placemark>
			<name>NAP</name>
			<LookAt>
				<longitude>-100.101328735861</longitude>
				<latitude>19.70396816334454</latitude>
				<altitude>0</altitude>
				<heading>0.004597208609376905</heading>
				<tilt>33.33774604984351</tilt>
				<range>119.1130615836073</range>
				<gx:altitudeMode>relativeToSeaFloor</gx:altitudeMode>
			</LookAt>
			<styleUrl>#m_ylw-pushpin0</styleUrl>
			<Point>
				<gx:drawOrder>1</gx:drawOrder>
				<coordinates>-100.1010671479049,19.70403664574141,0</coordinates>
			</Point>
		</Placemark>
		<Placemark>
			<name>EMPALME</name>
			<LookAt>
				<longitude>-100.1011226199574</longitude>
				<latitude>19.70403592902229</latitude>
				<altitude>0</altitude>
				<heading>0.004666704368396044</heading>
				<tilt>33.33774804436138</tilt>
				<range>119.5172325455908</range>
				<gx:altitudeMode>relativeToSeaFloor</gx:altitudeMode>
			</LookAt>
			<styleUrl>#msn_13332</styleUrl>
			<Point>
				<gx:drawOrder>1</gx:drawOrder>
				<coordinates>-100.101392477662,19.70406423578443,0</coordinates>
			</Point>
		</Placemark>
		<Placemark>
			<name>NAP</name>
			<LookAt>
				<longitude>-100.0999965312506</longitude>
				<latitude>19.70404736534654</latitude>
				<altitude>0</altitude>
				<heading>0.005113996000507895</heading>
				<tilt>26.61863529574575</tilt>
				<range>217.1312315383771</range>
				<gx:altitudeMode>relativeToSeaFloor</gx:altitudeMode>
			</LookAt>
			<styleUrl>#msn_ima1200</styleUrl>
			<Point>
				<gx:drawOrder>1</gx:drawOrder>
				<coordinates>-100.1006683067842,19.70385056302065,0</coordinates>
			</Point>
		</Placemark>
		<Placemark>
			<name>NAP</name>
			<LookAt>
				<longitude>-100.0999848164949</longitude>
				<latitude>19.70334406705609</latitude>
				<altitude>0</altitude>
				<heading>0.005110588201417148</heading>
				<tilt>30.00096466629428</tilt>
				<range>214.969673275874</range>
				<gx:altitudeMode>relativeToSeaFloor</gx:altitudeMode>
			</LookAt>
			<styleUrl>#msn_ima1200</styleUrl>
			<Point>
				<gx:drawOrder>1</gx:drawOrder>
				<coordinates>-100.0998755829779,19.70333943951259,0</coordinates>
			</Point>
		</Placemark>
		<Placemark>
			<name>NAP</name>
			<LookAt>
				<longitude>-100.0987926990227</longitude>
				<latitude>19.70284970205761</latitude>
				<altitude>0</altitude>
				<heading>0.005512510214192985</heading>
				<tilt>30.0009919187386</tilt>
				<range>221.0395339106937</range>
				<gx:altitudeMode>relativeToSeaFloor</gx:altitudeMode>
			</LookAt>
			<styleUrl>#msn_ima1200</styleUrl>
			<Point>
				<gx:drawOrder>1</gx:drawOrder>
				<coordinates>-100.098387535694,19.70271268592046,0</coordinates>
			</Point>
		</Placemark>
		<Placemark>
			<name>EMPALME</name>
			<LookAt>
				<longitude>-100.0992447280261</longitude>
				<latitude>19.7081477334738</latitude>
				<altitude>0</altitude>
				<heading>0.005324151049211753</heading>
				<tilt>30.00121771144612</tilt>
				<range>271.1713540057665</range>
				<gx:altitudeMode>relativeToSeaFloor</gx:altitudeMode>
			</LookAt>
			<styleUrl>#msn_133321</styleUrl>
			<Point>
				<gx:drawOrder>1</gx:drawOrder>
				<coordinates>-100.0995090097412,19.7079945391101,0</coordinates>
			</Point>
		</Placemark>
		<Placemark>
			<name>RAMAL1</name>
			<styleUrl>#inline16</styleUrl>
			<LineString>
				<tessellate>1</tessellate>
				<coordinates>
					-100.1006774265316,19.70387552539739,0 -100.1005126857386,19.70437314830193,0 -100.1002693451151,19.7052224036808,0 -100.1001981894648,19.70552716337884,0 -100.1000486675169,19.70609243408535,0 -100.0995018747891,19.7057546903835,0 -100.0990716774226,19.70565634334535,0 
				</coordinates>
			</LineString>
		</Placemark>
		<Placemark>
			<name>RAMAL2</name>
			<styleUrl>#inline13</styleUrl>
			<LineString>
				<tessellate>1</tessellate>
				<coordinates>
					-100.0994978510733,19.70796516022718,0 -100.099595056596,19.70762625825465,0 -100.0997872425171,19.70757641055802,0 -100.1000231575111,19.70751865557044,0 -100.1007340958492,19.7073488347189,0 -100.1008750566504,19.70738949623542,0 -100.1010632194122,19.70816107502472,0 -100.1011343541586,19.70850412399371,0 -100.1013549456635,19.7093709459808,0 -100.1015064341649,19.70994069845844,0 -100.1016011695149,19.71026457106193,0 -100.1017190484501,19.71068227484909,0 -100.1017935379463,19.71123771144309,0 -100.1017688360557,19.71157700759517,0 -100.1016682813737,19.71162545545912,0 
				</coordinates>
			</LineString>
		</Placemark>
		<Placemark>
			<name>RAMAL3</name>
			<styleUrl>#inline8</styleUrl>
			<LineString>
				<tessellate>1</tessellate>
				<coordinates>
					-100.100862808111,19.70738926842099,0 -100.1017224980204,19.70741040753063,0 -100.1023583820845,19.70739708869863,0 -100.1026788226473,19.70733782565218,0 -100.1028248188711,19.70740370064465,0 -100.1031793573913,19.70784004926096,0 -100.1034503870277,19.70818382845006,0 -100.1037600414326,19.70853737402767,0 -100.1040117472318,19.70888966656151,0 -100.1042969431019,19.7093137435516,0 
				</coordinates>
			</LineString>
		</Placemark>
		<Placemark>
			<name>NAP</name>
			<LookAt>
				<longitude>-100.1000723594096</longitude>
				<latitude>19.70566283831915</latitude>
				<altitude>0</altitude>
				<heading>0.004434358842702165</heading>
				<tilt>32.25806352116091</tilt>
				<range>108.0025112257471</range>
				<gx:altitudeMode>relativeToSeaFloor</gx:altitudeMode>
			</LookAt>
			<styleUrl>#msn_ima12</styleUrl>
			<Point>
				<gx:drawOrder>1</gx:drawOrder>
				<coordinates>-100.1001937086599,19.70555547606913,0</coordinates>
			</Point>
		</Placemark>
		<Placemark>
			<name>NAP</name>
			<LookAt>
				<longitude>-100.0990033888772</longitude>
				<latitude>19.70558250360746</latitude>
				<altitude>0</altitude>
				<heading>0.004682559904358987</heading>
				<tilt>31.85240083152201</tilt>
				<range>105.1886227764121</range>
				<gx:altitudeMode>relativeToSeaFloor</gx:altitudeMode>
			</LookAt>
			<styleUrl>#msn_ima12</styleUrl>
			<Point>
				<gx:drawOrder>1</gx:drawOrder>
				<coordinates>-100.0990648318555,19.70565243124017,0</coordinates>
			</Point>
		</Placemark>
		<Placemark>
			<name>NAP</name>
			<LookAt>
				<longitude>-100.0983449700527</longitude>
				<latitude>19.70743472791366</latitude>
				<altitude>0</altitude>
				<heading>0.00490459471425927</heading>
				<tilt>31.8542067166281</tilt>
				<range>486.2614172082339</range>
				<gx:altitudeMode>relativeToSeaFloor</gx:altitudeMode>
			</LookAt>
			<styleUrl>#msn_ima12</styleUrl>
			<Point>
				<gx:drawOrder>1</gx:drawOrder>
				<coordinates>-100.0995686767321,19.70765867300566,0</coordinates>
			</Point>
		</Placemark>
		<Placemark>
			<name>NAP</name>
			<LookAt>
				<longitude>-100.1008074962612</longitude>
				<latitude>19.70786047398524</latitude>
				<altitude>0</altitude>
				<heading>0.004074180880114576</heading>
				<tilt>31.85345557630188</tilt>
				<range>327.7277535454059</range>
				<gx:altitudeMode>relativeToSeaFloor</gx:altitudeMode>
			</LookAt>
			<styleUrl>#msn_ima12</styleUrl>
			<Point>
				<gx:drawOrder>1</gx:drawOrder>
				<coordinates>-100.1008666862248,19.70741888016319,0</coordinates>
			</Point>
		</Placemark>
		<Placemark>
			<name>NAP</name>
			<LookAt>
				<longitude>-100.1015004429603</longitude>
				<latitude>19.71099662735523</latitude>
				<altitude>0</altitude>
				<heading>0.006784270445553424</heading>
				<tilt>47.04147978804166</tilt>
				<range>216.175138982855</range>
				<gx:altitudeMode>relativeToSeaFloor</gx:altitudeMode>
			</LookAt>
			<styleUrl>#msn_ima120</styleUrl>
			<Point>
				<gx:drawOrder>1</gx:drawOrder>
				<coordinates>-100.1017234989169,19.71068484498344,0</coordinates>
			</Point>
		</Placemark>
		<Placemark>
			<name>NAP</name>
			<LookAt>
				<longitude>-100.1014712854495</longitude>
				<latitude>19.71177946390439</latitude>
				<altitude>0</altitude>
				<heading>0.007431149320829032</heading>
				<tilt>51.84265342716775</tilt>
				<range>153.6227600546484</range>
				<gx:altitudeMode>relativeToSeaFloor</gx:altitudeMode>
			</LookAt>
			<styleUrl>#msn_ima12</styleUrl>
			<Point>
				<gx:drawOrder>1</gx:drawOrder>
				<coordinates>-100.1016716447679,19.71162227901236,0</coordinates>
			</Point>
		</Placemark>
		<Placemark>
			<name>NAP</name>
			<LookAt>
				<longitude>-100.1008944368398</longitude>
				<latitude>19.70837613853747</latitude>
				<altitude>0</altitude>
				<heading>0.004426696755962994</heading>
				<tilt>33.61652116146873</tilt>
				<range>244.6470622960882</range>
				<gx:altitudeMode>relativeToSeaFloor</gx:altitudeMode>
			</LookAt>
			<styleUrl>#msn_ima12</styleUrl>
			<Point>
				<gx:drawOrder>1</gx:drawOrder>
				<coordinates>-100.1011607973532,19.70852506306401,0</coordinates>
			</Point>
		</Placemark>
		<Placemark>
			<name>NAP</name>
			<LookAt>
				<longitude>-100.1025102816577</longitude>
				<latitude>19.7075912714934</latitude>
				<altitude>0</altitude>
				<heading>0.003881793804884764</heading>
				<tilt>33.61709579065113</tilt>
				<range>360.2457343152135</range>
				<gx:altitudeMode>relativeToSeaFloor</gx:altitudeMode>
			</LookAt>
			<styleUrl>#msn_ima12</styleUrl>
			<Point>
				<gx:drawOrder>1</gx:drawOrder>
				<coordinates>-100.1028417721292,19.70743218950118,0</coordinates>
			</Point>
		</Placemark>
		<Placemark>
			<name>NAP</name>
			<LookAt>
				<longitude>-100.1033903519574</longitude>
				<latitude>19.70873963432784</latitude>
				<altitude>0</altitude>
				<heading>0.003585008581045194</heading>
				<tilt>33.6170316187149</tilt>
				<range>347.3372377136699</range>
				<gx:altitudeMode>relativeToSeaFloor</gx:altitudeMode>
			</LookAt>
			<styleUrl>#msn_ima12</styleUrl>
			<Point>
				<gx:drawOrder>1</gx:drawOrder>
				<coordinates>-100.104295482757,19.70928631295908,0</coordinates>
			</Point>
		</Placemark>
		<Placemark>
			<name>Medición de la ruta</name>
			<styleUrl>#inline14</styleUrl>
			<LineString>
				<tessellate>1</tessellate>
				<coordinates>
					-100.0917717245268,19.72161983258211,0 -100.0919590830843,19.72176897642088,0 -100.09196761272,19.72221309055195,0 -100.0917783566014,19.72268900113394,0 -100.0917517437792,19.72324976485835,0 -100.0916974990664,19.72394119921271,0 -100.0916441780421,19.72432901177116,0 -100.0913696535055,19.72468912526222,0 -100.0913877247653,19.72511193917524,0 -100.0913854801699,19.72561453285975,0 -100.0913345351985,19.72637755189983,0 
				</coordinates>
			</LineString>
		</Placemark>
		<Placemark>
			<name>Medición de la ruta</name>
			<styleUrl>#inline11</styleUrl>
			<LineString>
				<tessellate>1</tessellate>
				<coordinates>
					-100.0896072484046,19.72229060830182,0 -100.0893702477721,19.72242680382081,0 -100.0891414976569,19.72261762342584,0 -100.0889199755131,19.72265320852664,0 -100.0888613670136,19.72276366405828,0 -100.0887722891032,19.72295596479955,0 -100.0886615071105,19.72289924829971,0 -100.0886803157209,19.72318298976082,0 -100.088647279642,19.72356805616535,0 -100.0886474842628,19.7237853969022,0 -100.0883886775981,19.72398738802931,0 -100.0882060535112,19.72422294815804,0 -100.0879864810921,19.72444748337805,0 -100.0879966995421,19.72454864483695,0 -100.0883054648502,19.72459459518134,0 -100.0885441388493,19.72462056095451,0 
				</coordinates>
			</LineString>
		</Placemark>
		<Placemark>
			<name>EMPALME</name>
			<LookAt>
				<longitude>-100.0919617539675</longitude>
				<latitude>19.72193895408281</latitude>
				<altitude>0</altitude>
				<heading>-19.08003152325358</heading>
				<tilt>27.80506334951441</tilt>
				<range>212.2730600734713</range>
				<gx:altitudeMode>relativeToSeaFloor</gx:altitudeMode>
			</LookAt>
			<styleUrl>#msn_133320</styleUrl>
			<Point>
				<gx:drawOrder>1</gx:drawOrder>
				<coordinates>-100.091775537392,19.72161473631071,0</coordinates>
			</Point>
		</Placemark>
		<Placemark>
			<name>Troncal de la loma a la manzana</name>
			<styleUrl>#m_ylw-pushpin00</styleUrl>
			<LineString>
				<tessellate>1</tessellate>
				<coordinates>
					-100.118302962064,19.69900117165982,0 -100.1182652646713,19.69861025614261,0 -100.118228116009,19.69817711137325,0 -100.1182066124495,19.6978528745798,0 -100.1181648121261,19.69755633485552,0 -100.118089491085,19.6968857186661,0 -100.1180547595441,19.69653304528607,0 -100.1180880410668,19.6963236344977,0 -100.1181062097174,19.69606983233547,0 -100.1178896229934,19.69541238513652,0 -100.1177582249563,19.69519720033726,0 -100.1176687291133,19.69480246698236,0 -100.1176644178767,19.6946353959341,0 -100.1176369959624,19.69428973408667,0 -100.1174960962042,19.69370543533193,0 -100.1173256587184,19.69329788919405,0 -100.1170470509714,19.69271182896327,0 -100.1167330742409,19.69233563313838,0 -100.1164388903707,19.6921780005612,0 -100.1162498091275,19.69209161096123,0 -100.1156704693055,19.69202785242474,0 -100.115248052445,19.69195648649623,0 -100.1146328175101,19.6918598940077,0 -100.1141714791963,19.69179864019096,0 -100.1133008896107,19.69168285080093,0 -100.1130695482119,19.69166089003393,0 -100.1126038355505,19.69166474350352,0 -100.1117391645723,19.69200011041891,0 -100.1106776616941,19.6922297982468,0 -100.109763216961,19.69230403529599,0 -100.1094096423984,19.69232177077646,0 -100.1085733141092,19.69243224939576,0 -100.107771428249,19.69244354116742,0 -100.1075164032905,19.69247948252213,0 -100.1070200417772,19.69233964825662,0 -100.1066083627385,19.6922870828241,0 -100.1060088700256,19.69235556681805,0 -100.1053757686521,19.69245876311989,0 -100.1050391598896,19.6925137942691,0 -100.1046678942196,19.6926409066032,0 -100.1042929286366,19.69283709063167,0 -100.1040792389818,19.69284797504849,0 -100.1037633591488,19.69269311392193,0 -100.1026008437924,19.69227792362848,0 -100.1015090606424,19.69193755405879,0 -100.1008583501602,19.69171387280949,0 -100.1006064528539,19.69163100144442,0 -100.1003890261851,19.69161970789722,0 -100.0995886499517,19.69178019131826,0 -100.0988098636692,19.69196851952116,0 -100.0982319186753,19.69215184252662,0 -100.0973524505056,19.69238152564589,0 -100.0973516203339,19.69252503990548,0 -100.0968725202949,19.69277580448481,0 -100.0965578816994,19.69291615001463,0 -100.0947020606631,19.6941021478322,0 -100.0933257064979,19.69474535532516,0 -100.0925290357324,19.69517018760283,0 -100.0914183648047,19.69572603913644,0 -100.0894353539007,19.69662927226079,0 -100.088253098698,19.69716013785741,0 -100.0866993213682,19.69786113465805,0 -100.0863702350536,19.69806886178071,0 -100.0864822261152,19.69837876800725,0 
				</coordinates>
			</LineString>
		</Placemark>
		<Placemark>
			<name>Troncal SFP a la loma</name>
			<styleUrl>#m_ylw-pushpin00</styleUrl>
			<LineString>
				<tessellate>1</tessellate>
				<coordinates>
					-100.0863658164973,19.69806834172589,0 -100.0840012121643,19.69917139319811,0 -100.0835800477814,19.69936497986626,0 -100.0812111756957,19.70043592083087,0 -100.0792304677667,19.70137541790501,0 -100.0776199140272,19.70211771693795,0 -100.077216328524,19.70230800306519,0 -100.0770501128574,19.70232188273304,0 -100.0765833070762,19.7022347456408,0 -100.0751406994694,19.70172146847409,0 -100.0739262576553,19.70134223511252,0 -100.0735081224821,19.70116117370381,0 -100.0698283779871,19.69995005372868,0 -100.0697630590503,19.69924637885932,0 -100.0697245437345,19.69830679549425,0 -100.0696122285183,19.69740502458237,0 -100.0688296975994,19.69755784719278,0 -100.0684582141293,19.69770317158313,0 -100.0682670037548,19.69790614744116,0 -100.0680079260529,19.6978331929615,0 -100.0668758066364,19.69751871689226,0 -100.0647813047877,19.69689849499447,0 -100.0632838281064,19.69659864019846,0 -100.0590618537263,19.69527014353483,0 -100.0524401973436,19.69340418029044,0 -100.0490728829259,19.69249920427901,0 -100.0466216468861,19.69176581731355,0 -100.0428027802181,19.69063949551984,0 -100.0390633442172,19.68967603598404,0 -100.0365509591435,19.68895209777279,0 -100.032314510776,19.68776431792891,0 -100.030964508946,19.68737644633694,0 -100.0302909295834,19.68701246974384,0 -100.0279237063614,19.68573412350783,0 -100.0269450292549,19.68512697601175,0 -100.023139325631,19.68299936378414,0 -100.0212875884204,19.68202391819454,0 -100.0196996676384,19.68480343442319,0 -100.0167714383188,19.69007500284049,0 -100.015180404165,19.69274796198523,0 -100.0144242121207,19.69410909150231,0 -100.0125047245098,19.69492872340281,0 -100.0102310268781,19.69589416161498,0 -100.0085266677422,19.69657312018947,0 -100.005813457218,19.69766202046499,0 -100.0019750705807,19.6991521519691,0 -99.99872860556538,19.70044837354056,0 -99.99728575439924,19.70112402386374,0 -99.99522866544207,19.70200694263395,0 -99.99239102140777,19.70306405619638,0 -99.9924714218178,19.70329755479132,0 -99.99140486366761,19.70422537826889,0 -99.99023539284188,19.7055051392768,0 -99.98906323482761,19.70654120332758,0 -99.9880646812877,19.70755203930018,0 -99.98708580576985,19.70920797321842,0 -99.9864785709196,19.70877805652052,0 -99.98570989159701,19.70826779492464,0 -99.98532619485677,19.70795094198661,0 -99.9850439296206,19.70753180741581,0 -99.98473761572852,19.70716648159883,0 -99.984343497887,19.70676010401448,0 -99.98368743860757,19.70642113691418,0 -99.98336605011349,19.70598692189941,0 -99.98299557582504,19.70551110406657,0 -99.98290068460547,19.70518977107438,0 -99.98072561784554,19.70527396849365,0 -99.98030203381978,19.70531205704781,0 -99.97994242613368,19.70470911126803,0 -99.97963871959064,19.70412471592265,0 -99.97946655290316,19.70397034859347,0 -99.97953604502389,19.70357450770542,0 -99.97967562630279,19.70294241305935,0 -99.97976571513513,19.70243722486255,0 -99.97983048465235,19.70212814645793,0 -99.97988675088051,19.7017932678943,0 -99.98006993965888,19.70156177498716,0 -99.98052271692789,19.7010793243949,0 -99.98081097477203,19.70079992297946,0 -99.98127724281127,19.70057924998661,0 -99.9809101988677,19.70032484664279,0 -99.98023087047393,19.70037018660612,0 -99.97949673749608,19.70041143225373,0 -99.97917638743152,19.70041589382556,0 -99.97868698719775,19.70051589573249,0 -99.97828597201202,19.70059528893028,0 -99.97809559774325,19.70039666398576,0 -99.9778175890586,19.70021446946166,0 -99.97755789604516,19.7000967862219,0 -99.97743127829385,19.70009820650705,0 -99.9773354072336,19.70039109314466,0 -99.97728162917835,19.70051556943396,0 -99.97728883030932,19.70092651955422,0 -99.97719942180888,19.70097174771582,0 -99.97665955269635,19.70113153962558,0 -99.97637523332673,19.7012487341679,0 -99.97609753819245,19.70130181819041,0 -99.97566573815203,19.7014976491217,0 -99.97519392422647,19.7015502619129,0 -99.97495182541803,19.70174422153235,0 -99.97505255160401,19.7019527256181,0 -99.97519454894595,19.70230622279948,0 -99.97507395123998,19.70278768334912,0 -99.97500214193813,19.70324639364216,0 -99.97444997136084,19.70314995401755,0 -99.9744082993263,19.70343196964929,0 -99.97449757481658,19.70360816090558,0 -99.97446978414014,19.703964339579,0 -99.97444338475938,19.70425953740122,0 -99.97444841729273,19.70476633957859,0 -99.97446170173298,19.70527821640669,0 -99.97443558269637,19.70572071392487,0 -99.9744151127625,19.7059251337013,0 -99.97449641133446,19.70611399815536,0 -99.97454735497969,19.70632801183039,0 -99.97367313546326,19.70635370415636,0 -99.9730238872034,19.70627306127917,0 -99.9722121843898,19.70614911189398,0 -99.97149102075286,19.70608637239137,0 -99.97118003324107,19.7060627297593,0 -99.97057671268134,19.70598491345501,0 -99.96966646330795,19.70586942703491,0 -99.96869849210006,19.70575960309489,0 -99.96811493490277,19.70569423698172,0 -99.96759104118821,19.70555996331667,0 -99.96697892412506,19.7052896736004,0 -99.96635903722657,19.70497274993534,0 -99.96576648953953,19.70466621029351,0 -99.96495410528952,19.70422721947894,0 -99.96396496163274,19.70373720267318,0 -99.96350763150356,19.70351674069482,0 -99.96312845769404,19.70394761255691,0 -99.96289814949493,19.70387225187304,0 -99.96251651088937,19.70407051023237,0 -99.96173874428887,19.70392994075337,0 -99.9614644851865,19.70378080088173,0 -99.96115155166804,19.70362427280122,0 -99.96089188103157,19.70347484090271,0 -99.9609906980133,19.70322287329136,0 -99.96063276811907,19.70315317691263,0 -99.9602038383827,19.70304675908438,0 -99.95965025759583,19.70295748344884,0 -99.9592979613183,19.70284500663571,0 -99.95892128733611,19.70269411443459,0 -99.95841076805496,19.70250237546498,0 -99.95814471541959,19.70235926489965,0 -99.95773586566033,19.70213115788818,0 -99.95740114235188,19.70200647434302,0 -99.95707143973883,19.70186744440225,0 -99.95646167144325,19.70157015515517,0 -99.95575686884477,19.70162143088044,0 -99.9554063039967,19.70167346659649,0 -99.95438308328021,19.70188441651556,0 -99.95360339121127,19.70202489689176,0 -99.95331664547068,19.70205423601643,0 -99.95273676456337,19.70177326690592,0 -99.95205967289817,19.70141824604139,0 -99.95162573106825,19.7012122771019,0 -99.95106087586994,19.70121485721587,0 -99.95073117533803,19.70111311218156,0 -99.95025688412071,19.70072735399322,0 -99.95003522935509,19.70057956736329,0 -99.94946741922708,19.70070379648429,0 -99.94865089376241,19.70114310455481,0 -99.94782478303171,19.70151625455606,0 -99.94758345912936,19.70203568558308,0 -99.94715929575534,19.70307344008507,0 -99.94653996690748,19.70426864147433,0 -99.94626122087048,19.70503955982217,0 -99.9460475429489,19.70546338399514,0 -99.94600853398281,19.7055693116099,0 -99.94579078129091,19.70534312538316,0 -99.94549463112614,19.70564738867336,0 -99.94493782013039,19.70625058314304,0 -99.94450010088946,19.70670239412578,0 -99.94432422263722,19.70687855188992,0 -99.94459158039376,19.70712613380855,0 -99.94475506526707,19.70726721755468,0 -99.94484050177304,19.70743536047814,0 -99.94504056619924,19.70763113618433,0 -99.94534852973821,19.70789219259653,0 -99.94547107615207,19.70798218520026,0 -99.94555112335951,19.70806850584244,0 -99.94510307605711,19.70843420365171,0 -99.94484130402475,19.70858400271917,0 -99.94465236922011,19.70861875700933,0 -99.94444022540065,19.70862782661472,0 -99.94407624495777,19.70857727902421,0 -99.94375241958647,19.70858770225111,0 -99.94351783101474,19.70856639732126,0 -99.94300054506988,19.70855148078639,0 -99.94269657656785,19.70861593504009,0 -99.94232165648259,19.70885741137861,0 -99.94199643936038,19.70912441790482,0 -99.94173556240902,19.70942802497066,0 -99.94194349321729,19.70957505065074,0 -99.94194637083433,19.70989782872752,0 -99.94199125512554,19.71018833749626,0 -99.94183928161107,19.7105330763119,0 -99.9420083963841,19.71138360067666,0 -99.94209162111808,19.71202597385881,0 -99.9422968563363,19.71254449504313,0 -99.94263710386434,19.71299872840683,0 -99.9427127302157,19.71324914339892,0 -99.94279412925665,19.7135207772303,0 -99.94273439845036,19.71375829407955,0 -99.94266231248503,19.71432321237765,0 -99.94258887911876,19.71502226358354,0 -99.94245724952845,19.71567268871394,0 -99.9423044815864,19.71600188161388,0 -99.94258958275624,19.71611487489441,0 -99.94270320247705,19.71620889632109,0 -99.94299727563056,19.71623952850809,0 -99.94363943255493,19.71620259797153,0 -99.94415007375493,19.71615131179608,0 -99.94466596297906,19.71615265087931,0 -99.94481415790526,19.71613709045155,0 -99.94477662675298,19.71570347496165,0 -99.94471498359792,19.71534886178395,0 -99.94469453565283,19.71509779257164,0 -99.9446713054155,19.71478316303848,0 -99.94463611276345,19.71442810893311,0 -99.94431637117526,19.71445143682162,0 -99.94427207435164,19.71420830098976,0 
				</coordinates>
			</LineString>
		</Placemark>
		<Placemark>
			<name>#Troncal San Francisco De La Loma A SJR</name>
			<styleUrl>#m_ylw-pushpin</styleUrl>
			<LineString>
				<tessellate>1</tessellate>
				<coordinates>
					-100.0968027850558,19.69279090455565,0 -100.0967498786622,19.69226819251197,0 -100.0966854502332,19.69169123797556,0 -100.0966656086468,19.69132733515194,0 -100.0966746454978,19.69096878479009,0 -100.0967694849151,19.69027348691937,0 -100.0969670202641,19.68975237988067,0 -100.0974976940851,19.68909576683011,0 -100.0978831689075,19.688739675454,0 -100.0983215216296,19.68819647445655,0 -100.0988051151967,19.68717994310818,0 -100.0990821197017,19.6864414274371,0 -100.0992614949745,19.68601128387621,0 -100.0997362181905,19.68481679874518,0 -100.1001374857535,19.68377948261908,0 -100.100460787481,19.68292811867301,0 -100.1006860923386,19.68239498366622,0 -100.1016149319857,19.68001419265746,0 -100.1018941480935,19.67930814554672,0 -100.1022781311158,19.67839654690289,0 -100.1025067160688,19.6776782534097,0 -100.1026029379392,19.67687735661667,0 -100.1026504104891,19.67627550173541,0 -100.1026345204708,19.67538556650126,0 -100.1026002155476,19.67404496462832,0 -100.1025689581547,19.67336392666735,0 -100.1025124256186,19.67163021525967,0 -100.1024642740831,19.67105006089246,0 -100.1023776632678,19.67045660285397,0 -100.1022611860949,19.6698332464861,0 -100.1021858171628,19.66958516801228,0 -100.1020904301732,19.668947320258,0 -100.1020228092326,19.66853811882265,0 -100.1020716593481,19.66809192698781,0 -100.1021737980813,19.66763881897464,0 -100.1022935097679,19.66743033035012,0 -100.1023986576696,19.6669284831919,0 -100.1025778112494,19.66634379838908,0 -100.1027440436109,19.66585151645428,0 -100.1029059532071,19.6653236237044,0 -100.1033972704385,19.66466366507709,0 -100.1037567660234,19.66429098695729,0 -100.104205481565,19.66387336709333,0 -100.1054359698832,19.662585400621,0 -100.1065153054091,19.66151158424807,0 -100.1069740578869,19.66105989713522,0 -100.1075118792828,19.66057557322183,0 -100.1097689563839,19.65944033054899,0 -100.1106895060658,19.65899711831574,0 -100.1121694195263,19.65828575964332,0 -100.1137233940833,19.65753969102622,0 -100.1152140774837,19.65678934829574,0 -100.1183383384792,19.65528843725308,0 -100.1197392466755,19.65462916935023,0 -100.1200329642879,19.65452154449072,0 -100.120745824413,19.65416712494941,0 -100.1215419364508,19.65385063289441,0 -100.1227201860796,19.65345681439389,0 -100.1229510312232,19.6533463099757,0 -100.1236698447239,19.65311558826345,0 -100.1246305954184,19.65274202859118,0 -100.1252335279661,19.65253575098237,0 -100.1256851551028,19.65232095618661,0 -100.12600614044,19.65213771210173,0 -100.126476324688,19.65166835211192,0 -100.1268150197043,19.65112736026207,0 -100.1269512419334,19.65082728946057,0 -100.1269897452621,19.6505386358744,0 -100.1270251348936,19.6501054187974,0 -100.126973283689,19.64951058113108,0 -100.1268174003596,19.64906663123114,0 -100.1267464002209,19.648836838165,0 -100.1264978890973,19.64821777400837,0 -100.1262078287767,19.64814932520114,0 -100.1259729864977,19.64757528278754,0 -100.1263298590343,19.64780298993331,0 -100.1269179099825,19.64780893936143,0 -100.1280956487641,19.64776171611458,0 -100.1289737307477,19.6478037808631,0 -100.1297366943585,19.64778580523345,0 -100.1307160501836,19.64779520494563,0 -100.1312709987535,19.64811581562766,0 -100.1319950225537,19.64846174748701,0 -100.1324341022468,19.64875331113726,0 -100.1332877194734,19.64943048587279,0 -100.1339616237676,19.64987083388251,0 -100.1344068573747,19.65029955077154,0 -100.1351014966758,19.65103494471557,0 -100.1355385605281,19.65159793945211,0 -100.1362342879562,19.65234742022678,0 -100.1369303608205,19.65311342290801,0 -100.1374080305656,19.65359920281768,0 -100.1378403357826,19.65390912510094,0 -100.1384226751471,19.65413380751874,0 -100.1389334070904,19.65427917663081,0 -100.139288378349,19.65440522844978,0 -100.1395876492792,19.65461760428156,0 -100.1400020212729,19.6550440730627,0 -100.1404330597699,19.65546922940665,0 -100.1408768978483,19.65586733063896,0 -100.1414230351993,19.65608238252993,0 -100.1419701079305,19.65623916323073,0 -100.142509227297,19.65667242989078,0 -100.1437429993026,19.65758998118052,0 -100.1444700064898,19.65817830123127,0 -100.1451968185433,19.65877993175131,0 -100.1464204808007,19.65970623508747,0 -100.1476980286698,19.66078693791592,0 -100.1478112746091,19.66090857221816,0 -100.1478239057879,19.66106815304778,0 -100.1478814701421,19.66144109698377,0 -100.1479751150782,19.66198696497553,0 -100.1478591394969,19.66214770739745,0 -100.1476048171671,19.66277485837582,0 -100.1473917519014,19.66336615858271,0 -100.1472453139617,19.66373597736137,0 -100.1472158186755,19.66429771980389,0 -100.1471432539573,19.66536987188295,0 -100.1473061384369,19.66542565310561,0 -100.1476992300626,19.6653139365419,0 -100.1479352512168,19.66543349154312,0 -100.1482039789656,19.66546646516868,0 -100.1484666562261,19.66526374540332,0 -100.1484769686629,19.66515986716982,0 -100.148759059816,19.6649197872868,0 -100.1492217936507,19.66485307221916,0 -100.1494355055158,19.6648644819203,0 -100.1497244843017,19.66487537231179,0 -100.1499052836495,19.66490958015297,0 -100.1500212677785,19.66494531100176,0 -100.1502427827025,19.66500936113448,0 -100.1503006212372,19.66502510229487,0 -100.1505054007089,19.6649899135234,0 -100.1510022140613,19.66500378509163,0 -100.151564550471,19.66504426305719,0 -100.1518110831986,19.66507220292627,0 -100.1521066139683,19.66507805667597,0 -100.1524688418411,19.66511558757329,0 -100.1527068623881,19.66515310287912,0 -100.152929985925,19.66517898324384,0 -100.1531552949363,19.66519161897192,0 -100.1534420569517,19.66516279024667,0 -100.1536752217044,19.66511903145599,0 -100.1539150771154,19.66508136377174,0 -100.1541948856245,19.66503296103431,0 -100.1540577224026,19.66530842266446,0 -100.1539455702898,19.66560072598182,0 -100.1540172917765,19.66564498806407,0 
				</coordinates>
			</LineString>
		</Placemark>
		<Placemark>
			<name>#TRONCAL SJR A FABRICA PUEBLO NUEVO</name>
			<styleUrl>#msn_ylw-pushpin</styleUrl>
			<LineString>
				<tessellate>1</tessellate>
				<coordinates>
					-100.147293114813,19.66541483007941,0 -100.1475714285253,19.66583519486442,0 -100.147625847727,19.66596957265622,0 -100.1475451744062,19.66649520063721,0 -100.1474722949304,19.66685076210989,0 -100.1475121539739,19.66707330608443,0 -100.1476365143023,19.6673705997618,0 -100.1478492043886,19.6675930441718,0 -100.1480785196254,19.66793436443938,0 -100.1482053835932,19.66816974082831,0 -100.1482262942045,19.66872207064452,0 -100.1481902420561,19.66914386184421,0 -100.1481636880462,19.66973043164107,0 -100.1481347856769,19.67037758806758,0 -100.1481439082635,19.6708799409096,0 -100.1481362846882,19.67129921689872,0 -100.1481134614891,19.67206445670046,0 -100.1481339205388,19.67251040168471,0 -100.1481703002563,19.67304017506862,0 -100.1481803612624,19.67354910975741,0 -100.1481776393571,19.67435481477167,0 -100.1482454772129,19.67478836376634,0 -100.1480242214833,19.67531899702952,0 -100.1476743225163,19.67575336245288,0 -100.1475638537665,19.67589630246719,0 -100.1473931581597,19.67591450568507,0 -100.1472496112951,19.67623881051186,0 -100.1469490777949,19.6766595634186,0 -100.146604613849,19.67721679231,0 -100.1461797724807,19.67793955434104,0 -100.1458432266474,19.67858709096372,0 -100.1456235843653,19.67898044677896,0 -100.1454868287339,19.67924169800826,0 
				</coordinates>
			</LineString>
		</Placemark>
		<Placemark>
			<name>RAMAL FABRICA PUEBLO NUEVO 2</name>
			<styleUrl>#msn_ylw-pushpin1</styleUrl>
			<LineString>
				<tessellate>1</tessellate>
				<coordinates>
					-100.150498775237,19.67956635150453,0 -100.1504898291118,19.6794302127364,0 -100.1507108831688,19.67904237706676,0 -100.1508449794272,19.6788258563038,0 -100.1510204031158,19.67858583151714,0 -100.1512202796998,19.67830179424803,0 -100.1514437247583,19.67800739605507,0 -100.1515417768888,19.67783546406491,0 -100.1516557094255,19.67772050707825,0 -100.1519138093191,19.67749826006888,0 -100.1521848575927,19.6772689735667,0 -100.1524799041739,19.67709310155748,0 -100.1526836766845,19.67690863241042,0 -100.1529109848726,19.6767646607653,0 -100.1530371566434,19.67667833876327,0 -100.1533479544847,19.67648179123553,0 -100.1537726131993,19.67620909692328,0 -100.1542823320295,19.67591428931505,0 -100.1548719228722,19.67573131123772,0 -100.1554460498786,19.67579588508812,0 -100.1557888852878,19.6758447444298,0 -100.1562797532567,19.67593958650282,0 -100.1567182301712,19.67603463109078,0 -100.1570421611874,19.67613476527331,0 -100.1571716580838,19.67617893209688,0 -100.1571320038883,19.67649563571267,0 -100.1571107169682,19.67663012188299,0 -100.1576552006868,19.67666077627065,0 -100.1578250871462,19.67672154972733,0 -100.1579145348679,19.67680020985046,0 -100.1578741144823,19.67692907210656,0 -100.1577715659435,19.67728981963031,0 -100.1575810815542,19.67790735774245,0 -100.1573641618137,19.67837000210032,0 
				</coordinates>
			</LineString>
		</Placemark>
		<Placemark>
			<name>RAMAL SJR LAS TINAJAS</name>
			<styleUrl>#msn_ylw-pushpin1</styleUrl>
			<LineString>
				<tessellate>1</tessellate>
				<coordinates>
					-100.147150752845,19.66536712749562,0 -100.1469777121372,19.66562475042048,0 -100.1467299980897,19.66555120127235,0 -100.1462453148205,19.66547595767998,0 -100.1459009776656,19.66541386232243,0 -100.1453591617457,19.66527563089364,0 -100.1450404420518,19.66521732034417,0 -100.1446998606596,19.66514195591842,0 -100.1443758531569,19.66506902067785,0 -100.1440155751802,19.66498923194326,0 -100.1435422361395,19.66490151891168,0 -100.1433601031078,19.66485430577243,0 -100.1431843891209,19.66531434030641,0 -100.1430203050764,19.6659801162732,0 -100.1429565575962,19.66633145392276,0 
				</coordinates>
			</LineString>
		</Placemark>
		<Placemark>
			<name>RAMAL FABRICA PUEBLO NUEVO</name>
			<styleUrl>#msn_ylw-pushpin0</styleUrl>
			<LineString>
				<tessellate>1</tessellate>
				<coordinates>
					-100.1455037847125,19.67922761176754,0 -100.1458114363708,19.67934783380945,0 -100.1463225256567,19.67953262749182,0 -100.1466138472023,19.67964971080535,0 -100.1470335796546,19.67981508979972,0 -100.1473801722577,19.67991875238624,0 -100.1476516445229,19.68000842466592,0 -100.1478813941201,19.68009209637714,0 -100.1485419704037,19.68024316808654,0 -100.1491261407523,19.68028568176342,0 -100.1494667236373,19.68027187985642,0 -100.1498295587919,19.68020985439194,0 -100.150031060942,19.68005756217751,0 -100.1502026045544,19.67991756561183,0 -100.1505048458879,19.67955510014517,0 -100.1510046739074,19.67946483148955,0 -100.1512724658551,19.67951758273408,0 -100.1516497006586,19.67950529930621,0 -100.1520377585519,19.67948980592008,0 -100.1523306278468,19.67945625477537,0 -100.1527504051241,19.67949184081194,0 -100.153035130787,19.67958169812174,0 -100.1533042862189,19.67964766914505,0 -100.1537103034411,19.67970477625106,0 -100.1538939081984,19.67974719090386,0 -100.1541866669557,19.67968998768274,0 -100.1543651327629,19.67973114140661,0 -100.1549056061286,19.6797703854564,0 
				</coordinates>
			</LineString>
		</Placemark>
		<Placemark>
			<name>Ruta sin título</name>
			<styleUrl>#msn_ylw-pushpin4</styleUrl>
			<LineString>
				<tessellate>1</tessellate>
				<coordinates>
					-100.1477264451782,19.66077936616691,0 -100.1476804168326,19.66048781618606,0 -100.1476551184646,19.66023110666953,0 -100.1476303009594,19.66002766704347,0 -100.1475775896934,19.65959788816205,0 -100.147534426488,19.65937989786757,0 -100.1475244551538,19.65926228539577,0 -100.1475920500568,19.65914949402738,0 -100.1483050273663,19.65919428646971,0 -100.1486531617841,19.65925187995325,0 -100.1489811003706,19.65927140949995,0 -100.1492615570317,19.65930963078941,0 -100.1495265758217,19.65930029157739,0 -100.149885472435,19.65930082875327,0 -100.1500904139996,19.65928365728752,0 -100.1504007132118,19.65926997267865,0 -100.1506362114612,19.65927490618118,0 -100.1508126161876,19.6592627373942,0 -100.1512293780098,19.65924492788113,0 -100.1515873206464,19.65922859302695,0 -100.1520078619042,19.65919178661713,0 -100.1523305032668,19.65916612051931,0 -100.1526502667497,19.65913721976376,0 -100.152979089122,19.65907700575247,0 -100.1533988345647,19.65902672924808,0 -100.1535071785916,19.65902935849547,0 -100.1536304806738,19.65968972342574,0 
				</coordinates>
			</LineString>
		</Placemark>
		<Placemark>
			<name>RAMAL COTALERA SJR</name>
			<styleUrl>#msn_ylw-pushpin4</styleUrl>
			<LineString>
				<tessellate>1</tessellate>
				<coordinates>
					-100.1541996298001,19.6650394644931,0 -100.1542325728537,19.6649717492438,0 -100.1548351945056,19.66487390146327,0 -100.1551856501341,19.66478582523063,0 -100.1556599255057,19.66463525006047,0 -100.155954822073,19.66452505180599,0 -100.1564291289102,19.66435368593466,0 -100.1568200650891,19.66421750342111,0 -100.1572867700837,19.66408414392988,0 -100.1575801361875,19.66403121771743,0 -100.1577647267382,19.6639836757711,0 -100.1579205134755,19.66391083352811,0 -100.1581523033131,19.66381904508626,0 -100.1586271535998,19.66364541862909,0 -100.1589983287917,19.66359428532096,0 -100.159368210806,19.66361260726726,0 -100.1597975837352,19.66363879343448,0 -100.1601169583578,19.66367568032623,0 -100.1605273442931,19.66367670514478,0 -100.1611085922817,19.6636060739873,0 -100.1612806800802,19.66367277686935,0 -100.1614040054096,19.6636203542693,0 -100.1615508612257,19.66361740963803,0 -100.1617187486911,19.66358416683255,0 -100.1618229651129,19.66355633495706,0 -100.1620749266341,19.66351012155556,0 -100.1622389819499,19.66332158039308,0 -100.1624787231785,19.6630756281388,0 -100.1626845391534,19.66279024019979,0 -100.1628956767135,19.66247348189609,0 -100.163266312137,19.66195629390249,0 -100.1635864679565,19.6616146943114,0 -100.1637851008924,19.66139081528172,0 -100.1638190887568,19.66117761224815,0 -100.1637538242004,19.66087413891602,0 -100.1634841773269,19.66093145178172,0 -100.1629992390634,19.66110968664702,0 -100.1625581613385,19.66126933572423,0 
				</coordinates>
			</LineString>
		</Placemark>
		<Placemark>
			<name>RAMAL AV PASEO MARIPOSA MONARCA SJR</name>
			<styleUrl>#msn_ylw-pushpin3</styleUrl>
			<LineString>
				<tessellate>1</tessellate>
				<coordinates>
					-100.157025812178,19.66414311985082,0 -100.1568248773423,19.66402298183839,0 -100.1566800218622,19.66390607572407,0 -100.1566073518374,19.66385096507597,0 -100.1564110290683,19.66371446577315,0 -100.1562589381861,19.66362586740743,0 -100.1558920902788,19.6634135871424,0 -100.1555433719999,19.66318725937483,0 -100.1554076162837,19.66299538061335,0 -100.1551926806447,19.66261501652868,0 -100.1550586047218,19.66240064027889,0 -100.1550126259647,19.66232664460747,0 -100.1552493082773,19.66219339142199,0 -100.1555280024377,19.66202108064893,0 -100.1558238229533,19.66185635509716,0 -100.1559699767146,19.661786696928,0 -100.1561414303315,19.66169857061121,0 -100.1565724550872,19.66145779432823,0 
				</coordinates>
			</LineString>
		</Placemark>
		<Placemark>
			<name>Ruta sin título</name>
			<styleUrl>#msn_ylw-pushpin3</styleUrl>
			<LineString>
				<tessellate>1</tessellate>
				<coordinates>
					-100.1547775810886,19.66486426943255,0 -100.1545884778481,19.66444215264217,0 -100.1544465937736,19.66405659818702,0 -100.1543316166291,19.66368310193153,0 -100.154209930722,19.66332625354454,0 -100.1540552714413,19.66304484296078,0 -100.1538785782934,19.66292253731276,0 -100.1537272124202,19.66273829627028,0 -100.1534785502363,19.66245537201628,0 -100.1533157681752,19.66224585748446,0 -100.1531973890752,19.6621163755754,0 -100.153004275267,19.6619466961474,0 -100.1529602043908,19.66188218352498,0 
				</coordinates>
			</LineString>
		</Placemark>
		<Placemark>
			<name>RAMAL ELEJIDO SJR 1</name>
			<styleUrl>#msn_ylw-pushpin3</styleUrl>
			<LineString>
				<tessellate>1</tessellate>
				<coordinates>
					-100.1539297770195,19.66560711944383,0 -100.1537714548351,19.6659517817873,0 -100.1534519238408,19.66643760310249,0 -100.1533695242617,19.66654303416665,0 -100.1536884095852,19.66669552241039,0 -100.1541242567985,19.66688820288399,0 -100.1544542970534,19.66710685945989,0 -100.154274144415,19.66739298953369,0 -100.1542059480421,19.66773108279145,0 -100.1541876578941,19.66792572463538,0 -100.1539841474322,19.66831256556125,0 -100.153877000921,19.66858057491754,0 -100.1544579001935,19.66854361411568,0 -100.154801922192,19.66851155067864,0 -100.1550917859254,19.66843822106432,0 -100.155612235223,19.66827447347918,0 -100.1559996680449,19.66813635257075,0 -100.1562284062508,19.66802391185462,0 -100.1563919608291,19.66828279444151,0 -100.1566230382647,19.66861907555873,0 -100.1567810080215,19.6687632257742,0 -100.1569128756881,19.66902256063416,0 -100.1572024712829,19.66933011997306,0 -100.1575355825926,19.66916738160624,0 -100.157880469979,19.66897911867925,0 -100.1582496626554,19.66875462719451,0 -100.1587294161021,19.66853218591964,0 -100.1591879989809,19.66844537989142,0 
				</coordinates>
			</LineString>
		</Placemark>
		<Placemark>
			<name>RAMAL ELEJIDO SJR 2</name>
			<styleUrl>#msn_ylw-pushpin3</styleUrl>
			<LineString>
				<tessellate>1</tessellate>
				<coordinates>
					-100.157208416466,19.66932727857229,0 -100.1570983156651,19.66946960982533,0 -100.156934569235,19.66972732814462,0 -100.1566481940914,19.67018994146809,0 
				</coordinates>
			</LineString>
		</Placemark>
		<Placemark>
			<name>NAP</name>
			<LookAt>
				<longitude>-100.1148742513224</longitude>
				<latitude>19.696834705546</latitude>
				<altitude>0</altitude>
				<heading>-19.08058224587426</heading>
				<tilt>55.32748100129651</tilt>
				<range>88.17409841471732</range>
				<gx:altitudeMode>relativeToSeaFloor</gx:altitudeMode>
			</LookAt>
			<styleUrl>#m_ylw-pushpin0</styleUrl>
			<Point>
				<gx:drawOrder>1</gx:drawOrder>
				<coordinates>-100.1150025923476,19.69675486793837,0</coordinates>
			</Point>
		</Placemark>
		<Placemark>
			<name>ruta manzana presa</name>
			<styleUrl>#inline5</styleUrl>
			<LineString>
				<tessellate>1</tessellate>
				<coordinates>
					-100.1148064774626,19.69499047722871,0 -100.1150380974284,19.69503278556366,0 -100.1152650008562,19.69526617184161,0 -100.1153223077355,19.69536884269654,0 -100.1150101217844,19.69551548664943,0 -100.1146392361775,19.69573465981777,0 -100.1146223003834,19.69615882432534,0 -100.1146291600588,19.69645975952503,0 -100.1146527278722,19.69661157929955,0 -100.1148842730197,19.69673666517597,0 -100.1151011088161,19.69677928563786,0 -100.1154474862579,19.69694370913274,0 -100.1155892561885,19.69698821130995,0 -100.1157417021335,19.69743759086643,0 -100.1156748615214,19.69762672053452,0 -100.1156924207452,19.69769511732212,0 -100.115934513527,19.69812907986431,0 -100.116229752044,19.69821313602811,0 -100.1164796528009,19.69820295359361,0 -100.1167697531034,19.69819409306789,0 -100.1168568807228,19.69812377114158,0 -100.1171678942118,19.69813467876081,0 -100.1172888873534,19.69853685330767,0 -100.1174588759807,19.6987913153277,0 -100.1177948192762,19.69891403162039,0 -100.1180574605201,19.69901777588191,0 -100.1183103547214,19.69900780520987,0 -100.1183581774212,19.69923173069264,0 -100.1184164915551,19.69950774447353,0 -100.1182278660389,19.70001636368093,0 -100.1181147751186,19.70030344561419,0 -100.1176884723658,19.70059263628447,0 -100.1173287195284,19.70085476530303,0 -100.1171016486318,19.70084519844771,0 -100.1166228544493,19.70105459072302,0 -100.1161013320016,19.70130335564024,0 -100.1156283217417,19.70153813861678,0 -100.1150717911021,19.70179309039351,0 -100.1148842892898,19.70188818029285,0 -100.1146326039803,19.70198251654917,0 -100.1141531107518,19.70217264502674,0 -100.1137699538302,19.70231752991622,0 -100.1132592344678,19.70256806955876,0 -100.1126870520698,19.70277533913312,0 -100.1123182565631,19.70299083748013,0 -100.1120526478976,19.70351026691796,0 -100.1118603639811,19.70393267747498,0 -100.111593493334,19.70438744051205,0 -100.1112312316283,19.70510222512201,0 -100.1111167078053,19.70520509905073,0 -100.1110288129759,19.70550886216807,0 -100.1107569683406,19.70522723112711,0 -100.1103016169912,19.70521221006613,0 -100.1098310714087,19.70520776706915,0 -100.1093878599539,19.7053829257467,0 -100.1088589522785,19.70562780228599,0 -100.1085314915092,19.70585219507735,0 -100.1080233361193,19.70570268996658,0 -100.1068599772758,19.70531210625238,0 -100.1053808485282,19.7047639087656,0 -100.1039276097989,19.70429914147572,0 -100.1034989438884,19.70414085775507,0 -100.10307029656,19.70406816507891,0 -100.1027514234493,19.70406098133568,0 -100.1025254340609,19.70414708509838,0 -100.1019098235934,19.70413934773784,0 -100.1015816437682,19.70407703921686,0 -100.1011089712833,19.704032679957,0 -100.100839470252,19.70396007954671,0 -100.1006556106593,19.70385280622507,0 -100.1002548533069,19.70356024758173,0 -100.099880892159,19.70330662380252,0 -100.099436418365,19.70299887836148,0 -100.0989221966283,19.70290426338812,0 -100.0985241284934,19.70287947608116,0 -100.0983769713035,19.70272398240474,0 -100.0983728910927,19.70311322248233,0 -100.0983126531692,19.703718557894,0 -100.0983248754589,19.70441689954828,0 -100.0984222870518,19.70484534610917,0 -100.0986617606598,19.70554052924602,0 -100.0988878677074,19.7061625445314,0 -100.0990719696432,19.70659901283493,0 -100.0993370149814,19.70744141696705,0 -100.099459624688,19.7079714143226,0 -100.0994815914844,19.70859578512119,0 -100.0993925068422,19.70913446868634,0 -100.0992258084579,19.70971679870633,0 -100.0987442133456,19.71055858945873,0 -100.0982247379714,19.71134257418894,0 -100.0978126746545,19.71211573835464,0 -100.0974561471181,19.71262409873571,0 -100.0968160803485,19.71372703580888,0 -100.0960155767599,19.714893534067,0 -100.0958295619984,19.71557601043489,0 -100.0954439671611,19.71697359891771,0 -100.0952927756053,19.71779173891948,0 -100.0951169358096,19.71857790476368,0 -100.0950039576716,19.71894808710491,0 -100.0946363473686,19.71951942656892,0 -100.0942630871767,19.71998843417424,0 -100.0940087817778,19.72015320258898,0 -100.0938107159756,19.72034693125786,0 -100.0934907292045,19.72057508454434,0 -100.0929025380118,19.72098477554933,0 -100.0925335886332,19.72133646936638,0 -100.0922055222247,19.721540470136,0 -100.0920082278176,19.72160875819409,0 -100.0917733409406,19.72160682533778,0 -100.0910722576721,19.72153045851551,0 -100.0907526793,19.72157390961516,0 -100.0903231864101,19.72178457979403,0 -100.0900244685667,19.72196313147287,0 -100.0897530755988,19.72218392054146,0 -100.0894807763872,19.72236000626047,0 -100.0892536126633,19.72253378718314,0 -100.0889940333716,19.72283316505131,0 -100.0889302084929,19.72302618985016,0 -100.0888874180502,19.72347983472128,0 -100.088857096073,19.72410420113942,0 -100.0888863437699,19.72441689899198,0 -100.0891323849283,19.72482256303083,0 -100.0894897424431,19.72536668908236,0 -100.089660488304,19.72573232937128,0 -100.0898456400101,19.72631064561184,0 -100.0899734308535,19.72677069615525,0 -100.0903076491187,19.72776673161515,0 -100.0905061810419,19.72860157961241,0 -100.0907652570976,19.72941982008605,0 -100.091129462043,19.73022091958206,0 -100.0913128895827,19.73080784164915,0 -100.0916941843386,19.73128600301271,0 -100.091910147953,19.73162580216226,0 -100.0922057861326,19.73204147475625,0 -100.0923157646709,19.7323461709056,0 -100.0924113365559,19.73269517310725,0 -100.0924481679496,19.73288616505896,0 -100.0925667399141,19.73321324441061,0 -100.0927308230498,19.73358255651367,0 -100.0930716797876,19.73414117679213,0 -100.0931164996626,19.7343945924557,0 -100.0934079182813,19.73502103306504,0 -100.0934650746455,19.73557504172665,0 -100.0934055710648,19.73610127721076,0 -100.0932110332899,19.73662758591783,0 -100.0931169786012,19.73703927954269,0 -100.0929703855554,19.73744267130093,0 -100.0930436417935,19.73791439571117,0 -100.093145649067,19.73843544984242,0 -100.093224022392,19.73876167021982,0 -100.0932025703334,19.73897873912047,0 -100.0932327997361,19.73959282641184,0 -100.09327652463,19.74002230690947,0 -100.0933193517625,19.74033916364362,0 -100.0933650030947,19.7407528706624,0 -100.0934026810318,19.74127769299774,0 -100.0934311514032,19.74143037189461,0 -100.0934960405067,19.74194049956228,0 -100.0936748801022,19.74243108623146,0 -100.0938187158299,19.74272493856084,0 -100.0937948190994,19.74294772307195,0 -100.0941788526899,19.74329767468636,0 -100.0945245398792,19.74365276821361,0 -100.0948453601282,19.74400191466254,0 -100.0951182717079,19.74425273357486,0 -100.0954842169619,19.74457475928872,0 -100.0956357181454,19.74470198946263,0 -100.0957421717115,19.74481029869937,0 -100.0958135829152,19.74487063584627,0 -100.0960531185938,19.74467037565105,0 -100.0963354703001,19.74444168305826,0 -100.0965952913325,19.74423980483399,0 -100.0968044248725,19.74410607738336,0 -100.0968639613915,19.74380954152738,0 -100.0968223294782,19.74362849408443,0 -100.0966894812519,19.74346893477483,0 -100.0965005418797,19.74310562020767,0 -100.0963535969733,19.74254352849204,0 -100.0963134044172,19.74205208272351,0 -100.0962769217709,19.74182273392833,0 -100.0960125147496,19.74145235672828,0 -100.095899244674,19.74127122097716,0 -100.0958629104049,19.74101357749198,0 -100.0962025380988,19.74074113194451,0 -100.0969079624589,19.74069705249675,0 -100.0974889029158,19.74072039191561,0 -100.0983233305785,19.74088590554751,0 -100.0984964744155,19.74095592576923,0 -100.0984747050242,19.74126317742995,0 -100.0984160332186,19.74157675178871,0 -100.0987484610414,19.74211601327541,0 -100.0988829471432,19.74221744892227,0 -100.099290045198,19.74223595304398,0 -100.09987743579,19.74211714289164,0 -100.1004611608709,19.74224814653891,0 -100.1011536418776,19.74239568570681,0 -100.101722127191,19.74249725715801,0 -100.1019129322824,19.7425174565813,0 -100.1018643976035,19.74310385194884,0 -100.1017989654685,19.74362761513111,0 -100.101832598122,19.74383262401849,0 -100.1019168512217,19.74363500288078,0 -100.1024306272643,19.74351466511416,0 -100.102977338684,19.74342542573373,0 -100.1034667915625,19.7433458246032,0 -100.1039059598539,19.74319713771999,0 -100.1043648002939,19.74306763874528,0 -100.1052739509347,19.74282501809915,0 -100.1058558685716,19.74265110840856,0 -100.1063488228467,19.74264780038692,0 -100.1072126957917,19.74270412713868,0 -100.1083538968598,19.74276941444696,0 -100.1089471727096,19.74281295781719,0 -100.1097860526152,19.74283353626002,0 -100.1107173465373,19.74286819355169,0 -100.111211166652,19.74291384985824,0 -100.1117429604134,19.74290207608916,0 -100.1118279267329,19.74288375837331,0 -100.1120200823733,19.74278759754405,0 -100.1123603573199,19.74259889535538,0 -100.1128983385354,19.74231222371511,0 -100.1131271155236,19.74237400498517,0 -100.1138154828183,19.74286194954699,0 -100.1140747574904,19.74302737318038,0 -100.1144434367365,19.74330382249033,0 -100.1149019860383,19.74362291567465,0 -100.1151440656604,19.74378780276577,0 -100.1155002638337,19.74404629657413,0 -100.1158054622981,19.74422954277258,0 -100.1166914881483,19.74488350887091,0 -100.1170893929237,19.74529274084675,0 -100.1173216174254,19.74570303908934,0 -100.1178831033535,19.74604573785376,0 -100.1181395570101,19.74617619319547,0 -100.1182376511465,19.74622392902657,0 -100.1184473677287,19.74649480544537,0 -100.118651621306,19.74654566696521,0 -100.1190311388404,19.74648649154797,0 -100.1191107434573,19.74659097643514,0 -100.119138931838,19.74694771784337,0 -100.1192946640361,19.74732051077568,0 -100.1192351444909,19.7478136225869,0 -100.1191956976096,19.74821901390927,0 -100.1191035025226,19.74856885039525,0 -100.1189058143939,19.74875858958957,0 -100.1188208111728,19.74883444110447,0 -100.1186049117444,19.7489108537857,0 -100.1182609083332,19.74905125521008,0 -100.1180051481815,19.74918706163339,0 -100.1180689653201,19.74961990701926,0 -100.1181395241005,19.74983904366702,0 -100.1182077333387,19.75016834734764,0 -100.1184885395429,19.75028275979694,0 -100.1188368660348,19.75024818552827,0 -100.1192091128583,19.75031175803372,0 -100.1193283009134,19.75035341012533,0 -100.1194334579771,19.7504658516578,0 -100.1194205792643,19.75096821571443,0 -100.1193611010963,19.75123942772877,0 -100.1194526995883,19.75167809236288,0 -100.1195558242676,19.75204752430184,0 -100.1197560908622,19.75250506836306,0 -100.119908214464,19.7527735348108,0 -100.1200950752184,19.75306310725465,0 -100.1200374821545,19.75340751631217,0 -100.1200975496554,19.75368159333527,0 -100.1203099212592,19.75400718527638,0 -100.1207676559511,19.75451181403235,0 -100.1210293365951,19.75478408570152,0 -100.1212033004755,19.75499387083839,0 -100.1215309202432,19.75500909992397,0 -100.121777991644,19.75498769365332,0 -100.121999244859,19.7552911862002,0 -100.1220282162849,19.75554675328737,0 -100.1217935261847,19.75613494764308,0 -100.1216304067611,19.756640289894,0 -100.1217196606642,19.75725912363647,0 -100.1219530574921,19.75791082891531,0 -100.122107629806,19.75895910700403,0 -100.1223476651052,19.75958323582233,0 -100.1226140837882,19.75989386648354,0 -100.1230107867959,19.76071073614941,0 -100.1237488258828,19.76223670321308,0 -100.1244738457255,19.76368518524318,0 -100.1252062369682,19.76514010082864,0 -100.1253127831906,19.76549688892688,0 -100.1258556965365,19.76662178229182,0 -100.1264619198318,19.76782422705661,0 -100.1269118505414,19.76880679945364,0 -100.1275759691292,19.77008631551906,0 -100.1276323708546,19.77024558906965,0 -100.1277254564795,19.77043042816483,0 -100.1278967042646,19.77077249385588,0 -100.1279807960647,19.7709659145791,0 -100.1281066954625,19.77121878837624,0 -100.128268016479,19.77156449548661,0 -100.1283639158274,19.77179276754352,0 -100.1285034221118,19.7721048239089,0 -100.1287316029878,19.77254975627753,0 -100.1288907331368,19.7728476326761,0 -100.1291165101398,19.77330971099087,0 -100.129305809413,19.77365186147604,0 -100.129763236164,19.77466196977571,0 -100.1299177458491,19.77498827869389,0 -100.1303922607786,19.77559802639081,0 -100.1306614849746,19.77592682575852,0 -100.1307005210105,19.77574445635765,0 -100.1309634912035,19.77547714944538,0 -100.1312101609896,19.77511741343533,0 -100.1314228768196,19.77476858450619,0 -100.1315614769903,19.77435268301163,0 -100.1316486581061,19.7740161060765,0 -100.131845943551,19.7736921115564,0 -100.1321560901431,19.77327091437093,0 -100.13241362673,19.77295402858321,0 -100.1327178798831,19.77255187764681,0 -100.1330581101599,19.77203043126073,0 -100.1331724018417,19.77160643173049,0 -100.1331356735007,19.77138891394492,0 -100.1331871006074,19.77075917647748,0 -100.1331945715615,19.77064894458224,0 -100.1332538672268,19.77017232996325,0 -100.133364341229,19.769625779185,0 -100.1335411331027,19.76877788778122,0 -100.133674641094,19.76834108788227,0 -100.1337500152417,19.76804249624717,0 -100.1339819773957,19.76765968441843,0 -100.1343110377576,19.76722525830726,0 -100.1347806328419,19.76669679225245,0 -100.1355366809256,19.76606966781288,0 -100.1360777881713,19.76559174520394,0 -100.1364684098013,19.76527820282361,0 -100.1369597575843,19.76497546881654,0 -100.1375500287082,19.7646622879289,0 -100.1375138216939,19.76442513578938,0 -100.137453286026,19.76408833946354,0 -100.1375905382549,19.763996804775,0 
				</coordinates>
			</LineString>
		</Placemark>
		<Placemark>
			<name>NAP</name>
			<LookAt>
				<longitude>-100.1146609266464</longitude>
				<latitude>19.69584956600793</latitude>
				<altitude>0</altitude>
				<heading>-19.08051034342817</heading>
				<tilt>55.32738770045918</tilt>
				<range>75.5395522093345</range>
				<gx:altitudeMode>relativeToSeaFloor</gx:altitudeMode>
			</LookAt>
			<styleUrl>#m_ylw-pushpin0</styleUrl>
			<Point>
				<gx:drawOrder>1</gx:drawOrder>
				<coordinates>-100.1146596220177,19.69573472205645,0</coordinates>
			</Point>
		</Placemark>
		<Placemark>
			<name>Troncal la mesa SJR</name>
			<styleUrl>#msn_ylw-pushpin2</styleUrl>
			<LineString>
				<tessellate>1</tessellate>
				<coordinates>
					-100.1260010402272,19.64753311771475,0 -100.1255549225699,19.64640883274449,0 -100.1252021204821,19.64553705186581,0 -100.1249780777246,19.64496547334444,0 -100.1246894833821,19.64427557473657,0 -100.1244957826149,19.64381937317267,0 -100.124208208151,19.64312362682109,0 -100.1240820769583,19.64260197950397,0 -100.1239943053199,19.64133281069775,0 -100.1239779618546,19.64060499508982,0 -100.1240128928301,19.63993794018504,0 -100.1239747075083,19.6391733750976,0 -100.1239549920986,19.63868781180526,0 -100.1239949709244,19.63812515205777,0 -100.1240108250193,19.63734304570808,0 -100.1240046675384,19.63647423106729,0 -100.1239984187231,19.63608662306653,0 -100.1239983204047,19.63568517679084,0 -100.123969038155,19.63510313897451,0 -100.123992474037,19.63464587829688,0 -100.1240110602005,19.63390046719711,0 -100.1239666599328,19.63311131266269,0 -100.1239416071004,19.6320580779169,0 -100.12393238159,19.63179154620684,0 -100.1241431810247,19.63170349658347,0 -100.1241586658235,19.63102743627513,0 -100.1241289784812,19.63022829390401,0 -100.1241145352861,19.62907558902049,0 -100.1241038435388,19.6276347225657,0 -100.1240900605236,19.62630034337768,0 -100.1240941008239,19.62441350466569,0 -100.1240852211118,19.62244812402226,0 -100.124008439659,19.61986226968224,0 -100.1240258393007,19.61829358843934,0 -100.1240288200383,19.61780976667236,0 -100.1240065847849,19.61661777268575,0 -100.1240124198034,19.61514167023684,0 -100.1241013587716,19.61342249075651,0 -100.1242830044842,19.61181809342551,0 -100.1244724857718,19.61082298716122,0 -100.1244857233338,19.61055983323658,0 -100.1245955470747,19.60995049762578,0 -100.1247177657307,19.60920755521193,0 -100.1248446382483,19.60805016071678,0 -100.1249340080463,19.60727446330096,0 -100.1250642288554,19.60652082826547,0 -100.1251084791699,19.6060085555584,0 -100.1252006367551,19.60525865741145,0 -100.1254134125095,19.60390899780727,0 -100.1255875674594,19.60246176857013,0 -100.1261567385952,19.60137378351571,0 -100.1264800846904,19.60081415243857,0 -100.1269135097806,19.60017223109503,0 -100.1274108315829,19.59939485009806,0 -100.1278388424337,19.59884243367804,0 -100.1280644616884,19.59851334382443,0 -100.1290581491997,19.59767026041004,0 -100.1307044742026,19.59632237907104,0 -100.1308488991926,19.59622330287603,0 -100.1311029440863,19.59661860090977,0 -100.131571546787,19.59733328381072,0 -100.1318156784845,19.59774517811465,0 -100.1319186729091,19.59791076811984,0 -100.1318569667074,19.59816356785175,0 -100.1322034870722,19.59841822497996,0 -100.1322596838684,19.59846565641918,0 -100.1324765615619,19.5986085148749,0 -100.1321913712955,19.59900984072324,0 -100.1319972400952,19.59925970414632,0 -100.132378512555,19.59949635842448,0 -100.1325502954057,19.59960046893246,0 -100.132811618051,19.59960353926188,0 -100.1329298722125,19.59957834225002,0 -100.1329238320417,19.59936407654698,0 
				</coordinates>
			</LineString>
		</Placemark>
		<Placemark>
			<styleUrl>#msn_ylw-pushpin5</styleUrl>
			<LineString>
				<tessellate>1</tessellate>
				<coordinates>
					-100.1308408026002,19.59621587372117,0 -100.131688562751,19.59553727939785,0 -100.1321336278949,19.59516457220483,0 -100.1322946551651,19.59505168810767,0 -100.1325747431197,19.59479942210327,0 -100.1330178828921,19.59443634857939,0 -100.1333775515318,19.59417126148303,0 -100.1336237962578,19.59403436267056,0 -100.1339437430964,19.59390094103223,0 -100.1341659949137,19.59385575369254,0 -100.134479966289,19.5937922107533,0 -100.1346266368316,19.59377181159922,0 -100.1347484957492,19.59373706933736,0 -100.1349514808811,19.59369631317424,0 -100.1352452416428,19.59363108075622,0 -100.1354458596849,19.59358885326603,0 -100.1356960494112,19.59351550049148,0 -100.1359301009699,19.59341275491536,0 -100.1360417253932,19.59332949201962,0 -100.1362985799464,19.59319390499112,0 -100.1364982811472,19.59310126171217,0 -100.1366751893775,19.59297763376568,0 -100.1369839826754,19.59295039095261,0 -100.1372150321968,19.59299196339049,0 -100.1374982197378,19.59310330955071,0 -100.1378454125109,19.59334724125285,0 -100.138278981549,19.59361564173891,0 -100.1385277885311,19.59377163748145,0 -100.138836959776,19.5939024059352,0 -100.1391539395625,19.59398000969599,0 -100.1394812052065,19.59404249986212,0 -100.1398486066897,19.59423818354222,0 -100.1400292487553,19.59433686867936,0 -100.1403195502125,19.59449071412589,0 -100.1405766551139,19.59464506867107,0 -100.1409478542479,19.59485747894737,0 -100.1412356090184,19.59502504180023,0 -100.1414416522072,19.59511988457061,0 -100.1418689187096,19.59536264345748,0 -100.1421908315196,19.59556110220231,0 -100.1424791941063,19.59572489769919,0 -100.1427145390929,19.59585595554535,0 -100.1428519990998,19.59595557508753,0 -100.1430856294837,19.59614539542416,0 -100.143253873285,19.59631534084203,0 -100.1435849128891,19.59669018566381,0 -100.1438104610542,19.59706897657956,0 -100.1441443698914,19.59730668493786,0 -100.1443902451097,19.59751372085754,0 -100.1447848511343,19.59781962644236,0 -100.1451200901527,19.59807890304539,0 -100.1452594236372,19.59818152053032,0 -100.1454712212474,19.59834057583704,0 -100.1456823958811,19.59853522358952,0 -100.1459658084171,19.59872443005469,0 -100.1461144912809,19.59883338308863,0 -100.1462942327141,19.5989787500081,0 -100.146580544783,19.59917001254854,0 -100.1468283272449,19.5993091661359,0 -100.1469059881471,19.59934599076355,0 -100.1471144236488,19.59944753523939,0 -100.1473367126185,19.59954282143931,0 -100.1475230333188,19.59959169185585,0 -100.1477219796002,19.59962297536744,0 -100.1480173075166,19.59966291335911,0 -100.148259943118,19.59967400693585,0 -100.1485735750319,19.59969174095185,0 -100.1487718579,19.59967441781701,0 -100.1490174425736,19.59965284422601,0 -100.1492987764487,19.59961424718865,0 -100.149665973511,19.59958811035659,0 -100.1499774207574,19.59953734101927,0 -100.1501765695529,19.5994771347644,0 -100.1503630706747,19.5993439859365,0 -100.150758732043,19.59921405455583,0 -100.1510399169192,19.59914413098499,0 -100.1513353873901,19.59915265421368,0 -100.1516254509655,19.59898019440135,0 -100.1516932890054,19.5989459927025,0 -100.1520433156627,19.59873640171869,0 -100.1524436037672,19.59846636306483,0 -100.1526337141717,19.59827759190937,0 -100.1527625715507,19.59810724825171,0 -100.1529211167018,19.59798170476562,0 -100.1530381662705,19.59784024897288,0 -100.1531350734993,19.59776450988932,0 -100.1532457078966,19.5976552867871,0 -100.1533377937603,19.59758477070799,0 -100.1534719040544,19.59737445898688,0 -100.1536291545549,19.59721227213565,0 -100.1537251841097,19.59705406297919,0 -100.1538374820987,19.5969108692255,0 -100.1539337707371,19.59674612601357,0 -100.15402369863,19.59661472261721,0 -100.1540775363087,19.59654929677548,0 -100.1542455441111,19.59627125465864,0 -100.1543420247723,19.5961366834929,0 -100.1544978477937,19.59591094810412,0 -100.1546128632169,19.59563881123793,0 -100.1546856926401,19.59547078230116,0 -100.1547864754865,19.59524236977852,0 -100.1548375329422,19.5950271081122,0 -100.1548778284738,19.59482004063678,0 -100.154935325103,19.59450643913827,0 -100.1549501932822,19.59429701277428,0 -100.1549770000807,19.59383645192986,0 -100.1549956221433,19.59338567592588,0 -100.1550011393618,19.59325112897083,0 -100.1550349080378,19.59298932940418,0 -100.1550599679082,19.59262403507392,0 -100.1554256473284,19.59242168496446,0 -100.1556396130395,19.5923096197983,0 -100.1558840747362,19.59223561009594,0 -100.1559961470225,19.59206879264197,0 -100.1561776638453,19.59173990670637,0 -100.1563311566415,19.59152369787021,0 -100.15657266182,19.59132316817528,0 -100.1567957373476,19.59115092304484,0 -100.1571330546295,19.59089503017347,0 -100.157524630359,19.59064747016611,0 -100.1578041875241,19.59045752261343,0 -100.158080210317,19.59031865026948,0 -100.1585747704407,19.59020329014484,0 -100.1589905638201,19.59016953120136,0 -100.1590925249699,19.58993851237301,0 -100.159271328635,19.58969970641595,0 -100.1595076846003,19.58952222730979,0 -100.1598164250308,19.5893258699111,0 -100.1600055894021,19.58923192630458,0 -100.1601686437219,19.5891411173418,0 -100.1603180220333,19.58903178094907,0 -100.1604771241189,19.58888713930578,0 -100.1605866545823,19.58876280733874,0 -100.1608435869483,19.58852199959238,0 -100.1612043817768,19.58811281194165,0 -100.1615077521687,19.58777529400847,0 -100.1618975554031,19.58721925947327,0 -100.1621483645654,19.5868102281033,0 -100.1622711625727,19.58649364229776,0 -100.1624417758748,19.58621884032761,0 -100.1626228468696,19.58592021072338,0 -100.1627407574383,19.58574240212755,0 -100.1629611111986,19.58556771322783,0 -100.1633972481584,19.58536176379937,0 -100.1636725562841,19.58521854176219,0 -100.1640194542515,19.58504080440874,0 -100.1643978566186,19.58483638627245,0 -100.1648083512541,19.58464524629501,0 -100.1650515686524,19.5845293811388,0 -100.1652585930457,19.58444125913402,0 -100.1656463526152,19.58429381569039,0 -100.1657945491588,19.58423596122214,0 -100.1660040506312,19.58413091838611,0 -100.1661965206043,19.58398151030177,0 -100.1663569837981,19.58379999755099,0 -100.1665648702389,19.58356700121722,0 -100.1667282759698,19.58338904421149,0 -100.1670263268255,19.58358128917851,0 -100.1672660990711,19.58384001893126,0 -100.1674556454434,19.58393882738512,0 -100.1677645361559,19.58443595361148,0 -100.167925236061,19.58450516781417,0 -100.1684834877659,19.58461225446455,0 -100.1688096303966,19.58467324646593,0 -100.1690285467596,19.58472949828495,0 -100.1694203681339,19.58483556551615,0 -100.1696985825396,19.58483589107577,0 -100.1701834350158,19.58485929089842,0 -100.1705671895359,19.58491602784649,0 -100.1708669796287,19.58496876456181,0 -100.1709851898822,19.58499295951078,0 -100.1710242041986,19.5851095754088,0 -100.1709787537615,19.58527741424733,0 -100.1707540714236,19.58545076850617,0 -100.1703635049045,19.58570602410582,0 -100.16998078364,19.58591732712867,0 -100.169807383308,19.58601891608246,0 -100.1695311272944,19.58603558227493,0 -100.1693089964609,19.58613613190892,0 -100.1689955033051,19.58625156677369,0 -100.1687835581325,19.58635078388806,0 -100.1685819778986,19.58642803983185,0 -100.1684170032507,19.58647949284726,0 -100.1679989300323,19.58657685321132,0 -100.1677392910223,19.5866015539806,0 -100.1672823467429,19.58668057080062,0 -100.166990251909,19.58673030322326,0 -100.1667918662846,19.58677976290186,0 -100.1666891383505,19.58684164286668,0 -100.166545591452,19.58699703576545,0 -100.1664698405989,19.58709053658079,0 -100.1662902577908,19.58729886404782,0 -100.1662266917136,19.58742254586706,0 -100.1662295611569,19.58748611076251,0 -100.1663377261911,19.58759852602796,0 -100.1664981009236,19.58762511520039,0 -100.1668857673649,19.58755809926557,0 -100.1671114134237,19.58753669355209,0 -100.1673689238042,19.58753882852748,0 -100.167721596141,19.58763553900635,0 -100.1679227941549,19.58770224808347,0 -100.1681454607757,19.58768328436762,0 -100.1682325398746,19.58794865880769,0 -100.168153590578,19.58819263509445,0 -100.1681355950889,19.58839026831287,0 -100.1680776420141,19.58853674912761,0 -100.168308839574,19.58848235439838,0 -100.1686191565291,19.58850346294669,0 -100.1689704394178,19.5884373090638,0 
				</coordinates>
			</LineString>
		</Placemark>
		<atom:link rel="app" href="https://www.google.com/earth/about/versions/#earth-pro" title="Google Earth Pro 7.3.7.1327"></atom:link>
	</Folder>
</Document>
</kml>
